CDSCode,NCESDist,NCESSchool,District,School,Street,StreetAbr,City,Zip,MailStreet,MailCity,MailZip,MailState,OpenDate,ClosedDate,Charter,CharterNum,FundingType,DOC,DOCType,SOC,SOCType,EdOpsCode,EdOpsName,EILCode,EILName,GSoffered,GSserved,Virtual,Magnet,YearRoundYN,FederalDFCDistrictID,Latitude,Longitude
19101990121897.00,691078,12696,Los Angeles County Office of Education,Central Juvenile Hall,1605 Eastlake Avenue,1605 Eastlake Ave.,Los Angeles,90033,9300 Imperial Highway,Downey,90242,CA,7/1/2010,6/30/2025,N,No Data,No Data,0,County Office of Education (COE),14,Juvenile Court Schools,JUV,Juvenile Court School,HS,High School,12-Jun,12-Jul,N,N,N,No Data,34.063497,-118.20587
19646341936046.00,618390,2260,Inglewood Unified,Morningside High,10500 South Yukon Avenue,10500 South Yukon Ave.,Inglewood,90303-2003,10500 South Yukon Avenue,Inglewood,90303-2003,CA,7/1/1980,6/30/2025,N,No Data,No Data,54,Unified School District,66,High Schools (Public),TRAD,Traditional,HS,High School,12-Sep,12-Sep,N,N,N,No Data,33.940768,-118.33511
19646346014476.00,618390,2251,Inglewood Unified,Highland Elementary,430 Venice Way,430 Venice Way,Inglewood,90302-2099,430 Venice Way,Inglewood,90302-2099,CA,7/1/1980,6/30/2025,N,No Data,No Data,54,Unified School District,60,Elementary Schools (Public),TRAD,Traditional,ELEM,Elementary,K-6,K-7,N,N,N,No Data,33.972731,-118.36276
19646346057749.00,618390,2249,Inglewood Unified,Crozier (George W.) Junior High,1210 West Regent Street,1210 West Regent St.,Inglewood,90301-1705,1210 West Regent Street,Inglewood,90301-1705,CA,7/1/1980,6/30/2025,N,No Data,No Data,54,Unified School District,62,Intermediate/Middle Schools (Public),TRAD,Traditional,INTMIDJR,Intermediate/Middle/Junior High,8-Jul,8,N,N,N,No Data,33.964264,-118.3676
19646346098768.00,618390,2253,Inglewood Unified,Hudnall (Claude) Elementary,331 West Olive Street,331 West Olive St.,Inglewood,90301-2213,331 West Olive Street,Inglewood,90301-2213,CA,7/1/1980,6/30/2025,N,No Data,No Data,54,Unified School District,60,Elementary Schools (Public),TRAD,Traditional,ELEM,Elementary,K-6,K-6,N,N,N,No Data,33.961095,-118.36045
19647256015382.00,622500,2725,Long Beach Unified,Hudson,2335 Webster Avenue,2335 Webster Ave.,Long Beach,90810-3254,2335 Webster Avenue,Long Beach,90810-3254,CA,7/1/1980,6/30/2025,N,No Data,No Data,54,Unified School District,60,Elementary Schools (Public),TRAD,Traditional,ELEM,Elementary,K-5,K-5,N,N,N,No Data,33.799581,-118.21983
19647330115113.00,622710,11856,Los Angeles Unified,"Ivy Bound Academy of Math, Science, and Technology Charter Middle",15355 Morrison Street,15355 Morrison St.,Sherman Oaks,91403-1514,15355 Morrison Street,Sherman Oaks,91403-1514,CA,9/5/2007,6/30/2025,Y,936,Directly funded,54,Unified School District,62,Intermediate/Middle Schools (Public),TRAD,Traditional,INTMIDJR,Intermediate/Middle/Junior High,8-May,8-May,N,N,N,602099,34.160903,-118.46807
19647330121293.00,622710,12572,Los Angeles Unified,Alliance Tennenbaum Family Technology High,2050 North San Fernando Road,2050 North San Fernando Rd.,Los Angeles,90065-1267,2050 North San Fernando Road,Los Angeles,90065-1267,CA,8/15/2011,6/30/2025,Y,1162,Directly funded,54,Unified School District,66,High Schools (Public),TRAD,Traditional,HS,High School,12-Sep,12-Sep,N,N,N,602289,34.10226,-118.23739
19647330135616.00,622710,14100,Los Angeles Unified,Crete Academy,6103 Crenshaw Boulevard,6103 Crenshaw Blvd.,Los Angeles,90043-3946,6103 Crenshaw Boulevard,Los Angeles,90043-3946,CA,8/14/2017,6/30/2025,Y,1854,Directly funded,54,Unified School District,60,Elementary Schools (Public),TRAD,Traditional,ELEM,Elementary,K-6,K-6,N,N,N,601470,33.984498,-118.33126
19769680109926.00,No Data,10895,SBE - Academia Avance Charter,Academia Avance Charter,115 North Avenue 53,115 North Avenue 53,Highland Park,90042-4005,PO Box 42095,Los Angeles,90042,CA,9/30/2005,6/30/2025,Y,738,Directly funded,2,State Board of Education,65,K-12 Schools (Public),TRAD,Traditional,ELEMHIGH,Elementary-High Combination,12-Jun,12-Jun,N,N,N,602291,34.107288,-118.19842
19753410141721.00,600032,14656,Redondo Beach Unified,Redondo Beach Virtual Learning,1401 Inglewood Avenue,1401 Inglewood Ave.,Redondo Beach,90278-3912,1401 Inglewood Avenue,Redondo Beach,90278,CA,8/17/2022,6/11/2025,N,No Data,No Data,54,Unified School District,63,Alternative Schools of Choice,ALTSOC,Alternative School of Choice,HS,High School,K-12,12-Aug,V,N,N,No Data,33.867514,-118.36162
19646670140863.00,620880,14588,Lancaster Elementary,The Leadership Academy,44310 Hardwood Avenue,44310 Hardwood Ave.,Lancaster,93534-4332,44310 Hardwood Avenue,Lancaster,93534,CA,7/1/2021,6/6/2025,N,No Data,No Data,52,Elementary School District,63,Alternative Schools of Choice,ALTSOC,Alternative School of Choice,ELEM,Elementary,K-8,8-Mar,C,N,N,No Data,34.686855,-118.14394
19734376061279.00,609620,1000,Compton Unified,Walton Middle,900 West Greenleaf Avenue,900 West Greenleaf Ave.,Compton,90220-5101,900 West Greenleaf Avenue,Compton,90220-5101,CA,7/1/1980,6/6/2025,N,No Data,No Data,54,Unified School District,62,Intermediate/Middle Schools (Public),TRAD,Traditional,INTMIDJR,Intermediate/Middle/Junior High,8-Jul,8,C,N,N,No Data,33.880636,-118.23851
19648731996107.00,629850,7530,Paramount Unified,Paramount Unified Community Day,14507 Paramount Boulevard,14507 Paramount Blvd.,Paramount,90723-3419,14507 Paramount Boulevard,Paramount,90723-3419,CA,10/1/1997,6/5/2025,N,No Data,No Data,54,Unified School District,69,District Community Day Schools,COMMDAY,Community Day School,HS,High School,12-Jul,11-Aug,N,N,N,No Data,33.90179,-118.16029
19646670123174.00,620880,12650,Lancaster Elementary,Life Source International Charter,44339 Beech Avenue,44339 Beech Ave.,Lancaster,93534-4303,44339 Beech Avenue,Lancaster,93534-4303,CA,9/7/2011,2/10/2025,Y,1225,Directly funded,52,Elementary School District,60,Elementary Schools (Public),TRAD,Traditional,ELEM,Elementary,K-8,K-8,N,N,N,602199,34.688337,-118.13752
19647330129833.00,622710,13789,Los Angeles Unified,Global Education Academy 2,2009 West Martin Luther King Jr Boulevard,2009 West Martin Luther King Jr Blvd.,Los Angeles,90062-1434,2009 West Martin Luther King Jr Boulevard,Los Angeles,90062-1434,CA,9/2/2014,8/13/2024,Y,1641,No Data,54,Unified School District,60,Elementary Schools (Public),TRAD,Traditional,ELEM,Elementary,K-5,K-5,N,N,N,No Data,34.011254,-118.31546
19101990132605.00,691078,13895,Los Angeles County Office of Education,Valiente College Preparatory Charter,8691 California Avenue,8691 California Ave.,South Gate,90280-3003,8691 California Avenue,South Gate,90280-3003,CA,8/17/2015,6/30/2024,Y,1744,No Data,0,County Office of Education (COE),62,Intermediate/Middle Schools (Public),TRAD,Traditional,INTMIDJR,Intermediate/Middle/Junior High,8-May,8-May,N,N,N,No Data,33.954987,-118.20667
19101990134361.00,691078,14033,Los Angeles County Office of Education,Russell Westbrook Why Not? Middle,1700 West 46th Street,1700 West 46th St.,Los Angeles,90062-2347,1933 Broadway #1108,Los Angeles,90007-2347,CA,8/30/2016,6/30/2024,Y,1818,No Data,0,County Office of Education (COE),62,Intermediate/Middle Schools (Public),TRAD,Traditional,INTMIDJR,Intermediate/Middle/Junior High,8-Jun,8-Jun,N,N,N,No Data,34.001137,-118.30915
19101990139345.00,691078,14478,Los Angeles County Office of Education,We the People High,1635 Long Beach Boulevard,1635 Long Beach Blvd.,Long Beach,90813-2304,1635 Long Beach Boulevard,Long Beach,90813,CA,7/1/2020,6/30/2024,Y,2045,No Data,0,County Office of Education (COE),66,High Schools (Public),TRAD,Traditional,HS,High School,12-Sep,12-Sep,N,N,N,No Data,33.787729,-118.18981
19101990140772.00,691078,14581,Los Angeles County Office of Education,KIPP Poder Public,630 Leonard Avenue,630 Leonard Ave.,Los Angeles,90022-3508,630 Leonard Avenue,Los Angeles,90022-3508,CA,8/16/2021,6/30/2024,Y,2112,No Data,0,County Office of Education (COE),60,Elementary Schools (Public),TRAD,Traditional,ELEM,Elementary,K-8,K-2,N,N,N,No Data,34.020533,-118.14192
19646426014583.00,619440,2331,Keppel Union Elementary,Keppel Academy,9330 East Avenue U,9330 East Avenue U,Littlerock,93543-3107,9330 East Avenue U,Littlerock,93543-3107,CA,7/1/1980,6/30/2024,N,No Data,No Data,52,Elementary School District,62,Intermediate/Middle Schools (Public),TRAD,Traditional,INTMIDJR,Intermediate/Middle/Junior High,8-May,8-May,N,N,Y,No Data,34.52835,-117.96405
19647330122630.00,622710,12616,Los Angeles Unified,Para Los Ni√±os - Evelyn Thurman Gratts Primary,474 South Hartford Avenue,474 South Hartford Ave.,Los Angeles,90017-1306,474 South Hartford Avenue,Los Angeles,90017-1306,CA,9/7/2010,6/30/2024,Y,1215,No Data,54,Unified School District,60,Elementary Schools (Public),TRAD,Traditional,ELEM,Elementary,K-2,K-2,N,N,Y,No Data,34.056466,-118.26396
19647330126474.00,622710,13101,Los Angeles Unified,"Hilda L. Solis Learning Academy School of Technology, Business and Education",319 North Humphreys Avenue,319 North Humphreys Ave.,Los Angeles,90022-1422,319 North Humphreys Avenue,Los Angeles,90022-1422,CA,8/14/2012,6/30/2024,N,No Data,No Data,54,Unified School District,66,High Schools (Public),TRAD,Traditional,HS,High School,12-Sep,12-Sep,N,N,N,No Data,34.039104,-118.17138
19647330139071.00,622710,14410,Los Angeles Unified,KIPP Pueblo Unido,3759 East 57th Street,3759 East 57th St.,Maywood,90270-2614,3759 East 57th Street,Maywood,90270-2545,CA,8/13/2019,6/30/2024,Y,2041,No Data,54,Unified School District,60,Elementary Schools (Public),TRAD,Traditional,ELEM,Elementary,K-8,K-4,N,N,N,No Data,33.990858,-118.19641
19647330141481.00,622710,14626,Los Angeles Unified,KIPP Generations Academy,1415 West Gardena Boulevard,1415 West Gardena Blvd.,Gardena,90247-4712,1415 West Gardena Boulevard,Gardena,90247,CA,8/15/2022,6/30/2024,Y,2079,No Data,54,Unified School District,60,Elementary Schools (Public),TRAD,Traditional,INTMIDJR,Intermediate/Middle/Junior High,K-8,7-May,N,N,N,No Data,33.882118,-118.30049
19734370137240.00,609620,14249,Compton Unified,Ingenium Clarion Charter Middle,13305 South San Pedro Street,13305 South San Pedro St.,Los Angeles,90061-2254,13305 South San Pedro Street,Los Angeles,90061-2254,CA,8/14/2018,6/30/2024,Y,1952,No Data,54,Unified School District,62,Intermediate/Middle Schools (Public),TRAD,Traditional,INTMIDJR,Intermediate/Middle/Junior High,8-Jun,8-Jun,N,N,N,No Data,33.911229,-118.27006
19734456014120.00,616325,2037,Hacienda la Puente Unified,Bixby Elementary,16446 Wedgeworth Drive,16446 Wedgeworth Dr.,Hacienda Heights,91745-3044,16446 Wedgeworth Drive,Hacienda Heights,91745-3044,CA,7/1/1980,6/30/2024,N,No Data,No Data,54,Unified School District,60,Elementary Schools (Public),TRAD,Traditional,ELEM,Elementary,P-5,K-5,N,N,N,No Data,33.997492,-117.94821
19734456014153.00,616325,2040,Hacienda la Puente Unified,Del Valle Elementary,801 North Del Valle Street,801 North Del Valle St.,La Puente,91744-3017,801 North Del Valle Street,La Puente,91744-3017,CA,7/1/1980,6/30/2024,N,No Data,No Data,54,Unified School District,60,Elementary Schools (Public),TRAD,Traditional,ELEM,Elementary,P-6,K-6,N,N,N,No Data,34.032913,-117.94377
19734456014286.00,616325,2055,Hacienda la Puente Unified,Los Robles Academy,1530 South Ridley Avenue,1530 South Ridley Ave.,Hacienda Heights,91745-3245,1530 South Ridley Avenue,Hacienda Heights,91745-3245,CA,7/1/1980,6/30/2024,N,No Data,No Data,54,Unified School District,60,Elementary Schools (Public),TRAD,Traditional,ELEM,Elementary,K-5,K-5,N,N,N,No Data,34.010887,-117.98813
19734456014385.00,616325,2065,Hacienda la Puente Unified,Sunset Elementary,800 North Tonopah Avenue,800 North Tonopah Ave.,La Puente,91744-2460,800 North Tonopah Avenue,La Puente,91744-2460,CA,7/1/1980,6/30/2024,N,No Data,No Data,54,Unified School District,60,Elementary Schools (Public),TRAD,Traditional,ELEM,Elementary,K-6,K-6,N,N,N,No Data,34.045726,-117.96689
19734456069710.00,616325,2066,Hacienda la Puente Unified,Sunset,800 North Tonopah Avenue,800 North Tonopah Ave.,La Puente,91744-2460,800 North Tonopah Avenue,La Puente,91744-2460,CA,7/1/1980,6/30/2024,N,No Data,No Data,54,Unified School District,9,Special Education Schools (Public),SPEC,Special Education School,ELEM,Elementary,P-8,K-6,N,N,N,No Data,34.045726,-117.96689
19772890109942.00,No Data,10897,SBE - Los Angeles College Prep Academy,Los Angeles College Prep Academy,625 Coleman Avenue,625 Coleman Ave.,Los Angeles,90042-4903,625 Coleman Avenue,Los Angeles,90042,CA,9/6/2005,6/30/2024,Y,741,No Data,2,State Board of Education,67,High Schools In 1 School Dist. (Public),TRAD,Traditional,HS,High School,12-Sep,12-Sep,N,N,N,No Data,34.102359,-118.18336
19649986022701.00,635970,6159,Saugus Union,Santa Clarita Elementary,27177 Seco Canyon Road,27177 Seco Canyon Rd.,Saugus,91350-1550,27177 Seco Canyon Road,Saugus,91350-1550,CA,7/1/1960,6/8/2024,N,No Data,No Data,52,Elementary School District,60,Elementary Schools (Public),TRAD,Traditional,ELEM,Elementary,K-6,6-Feb,N,N,N,No Data,34.443889,-118.53464
19642876011381.00,603690,326,Baldwin Park Unified,Central Elementary,14741 Central Avenue,14741 Central Ave.,Baldwin Park,91706-5617,14741 Central Avenue,Baldwin Park,91706-5617,CA,7/1/1980,6/7/2024,N,No Data,No Data,54,Unified School District,60,Elementary Schools (Public),TRAD,Traditional,ELEM,Elementary,K-5,K-5,N,N,N,No Data,34.083434,-117.95316
19642876011464.00,603690,334,Baldwin Park Unified,Margaret Heath Elementary,14321 School Street,14321 School St.,Baldwin Park,91706-1650,14321 School Street,Baldwin Park,91706-1650,CA,7/1/1980,6/7/2024,N,No Data,No Data,54,Unified School District,60,Elementary Schools (Public),TRAD,Traditional,ELEM,Elementary,K-5,K-5,N,N,N,No Data,34.101406,-117.96267
19648730141739.00,629850,14654,Paramount Unified,Paramount Virtual Academy,15110 California Ave,15110 California Ave,Paramount,90723-4320,15110 California Ave,Paramount,90723,CA,8/17/2022,6/6/2024,N,No Data,No Data,54,Unified School District,63,Alternative Schools of Choice,ALTSOC,Alternative School of Choice,ELEMHIGH,Elementary-High Combination,K-12,11-Jun,V,N,N,No Data,33.896129,-118.15805
19642120141861.00,601620,14664,ABC Unified,ABC Virtual Academy,11939 Aclare Street,11939 Aclare St.,Cerritos,90703-2709,11939 Aclare Street,Cerritos,90703-2709,CA,8/22/2022,5/31/2024,N,No Data,No Data,54,Unified School District,63,Alternative Schools of Choice,ALTSOC,Alternative School of Choice,ELEM,Elementary,K-8,K-8,V,N,N,No Data,33.875048,-118.0782
19643371996230.00,606450,8013,Burbank Unified,Burbank USD Community Day,223 East Santa Anita Avenue,223 East Santa Anita Ave.,Burbank,91502-1447,223 East Santa Anita Avenue,Burbank,91502-1447,CA,9/1/1999,5/24/2024,N,No Data,No Data,54,Unified School District,69,District Community Day Schools,COMMDAY,Community Day School,HS,High School,12-Jul,12-Aug,N,N,N,No Data,34.178221,-118.30452
19647740114777.00,623160,12156,Lynwood Unified,Pathway Independent Study,11387 Bullis Road,11387 Bullis Rd.,Lynwood,90262-3660,11387 Bullis Road,Lynwood,90262-3660,CA,2/15/2007,1/5/2024,N,No Data,No Data,54,Unified School District,63,Alternative Schools of Choice,ALTSOC,Alternative School of Choice,HS,High School,12-Sep,12-Sep,N,N,N,No Data,33.925436,-118.20059
19646346014443.00,618390,2265,Inglewood Unified,Worthington TK-6 Elementary,11101 South Yukon Avenue,11101 South Yukon Ave.,Inglewood,90303-2728,11101 South Yukon Avenue,Inglewood,90303-2728,CA,7/1/1980,12/15/2023,N,No Data,No Data,54,Unified School District,60,Elementary Schools (Public),TRAD,Traditional,ELEM,Elementary,K-6,K-6,N,N,N,No Data,33.934459,-118.33512
19642460142240.00,602820,14713,Antelope Valley Union High,"Synergy School of the Arts and Technology, Lancaster & Palmdale","44950 Valley Central Way, Suite 101","44950 Valley Central Way, Ste. 101",Lancaster,93536-1507,"44950 Valley Central Way, Suite 101",Lancaster,93536,CA,9/5/2023,12/8/2023,Y,2139,No Data,56,High School District,65,K-12 Schools (Public),TRAD,Traditional,ELEMHIGH,Elementary-High Combination,K-12,K-9,C,N,N,No Data,34.699668,-118.17091
19101990100776.00,691078,11339,Los Angeles County Office of Education,North Valley Military Institute College Preparatory Academy,12105 Allegheny Street,12105 Allegheny St.,Sun Valley,91352,"8309 Laurel Canyon Boulevard, #295",Sun Valley,91352,CA,9/2/2003,8/31/2023,Y,540,No Data,0,County Office of Education (COE),65,K-12 Schools (Public),TRAD,Traditional,ELEMHIGH,Elementary-High Combination,12-Jun,12-Jun,C,N,Y,No Data,34.234622,-118.39656
19647330117077.00,622710,12312,Los Angeles Unified,APEX Academy,"1309 North Wilton Place, 3rd Floor","1309 North Wilton Pl., 3rd Fl.",Los Angeles,90028-8526,"1309 North Wilton Place, 3rd Floor",Los Angeles,90028-8526,CA,9/3/2008,6/30/2023,Y,1459,No Data,54,Unified School District,66,High Schools (Public),TRAD,Traditional,HS,High School,12-Jul,12-Jul,N,N,N,No Data,34.052234,-118.24368
19647330134148.00,622710,13899,Los Angeles Unified,The City,5753 Obama Boulevard,5753 Obama Blvd.,Los Angeles,90016-5013,5753 Obama Boulevard,Los Angeles,90016-5013,CA,7/1/2016,6/30/2023,Y,1710,No Data,54,Unified School District,62,Intermediate/Middle Schools (Public),TRAD,Traditional,INTMIDJR,Intermediate/Middle/Junior High,8-Jun,8-Jun,N,N,N,No Data,34.022002,-118.37113
19647330139055.00,622710,14434,Los Angeles Unified,Academy of Media Arts,2009 West Martin Luther King Boulevard,2009 West Martin Luther King Blvd.,Los Angeles,90062-1434,2009 West Martin Luther King Boulevard,Los Angeles,90062-1434,CA,8/20/2019,6/30/2023,Y,2038,No Data,54,Unified School District,66,High Schools (Public),TRAD,Traditional,HS,High School,12-Sep,12-Sep,C,N,N,No Data,34.011254,-118.31546
19649076112437.00,631320,3255,Pomona Unified,San Antonio Elementary,855 East Kingsley Avenue,855 East Kingsley Ave.,Pomona,91767-4919,855 East Kingsley Avenue,Pomona,91767-4919,CA,9/7/1994,6/30/2023,N,No Data,No Data,54,Unified School District,60,Elementary Schools (Public),TRAD,Traditional,ELEM,Elementary,P-5,K-5,N,N,N,No Data,34.066553,-117.73492
19757131930122.00,600153,10928,Alhambra Unified,Century High,20 South Marengo Avenue,20 South Marengo Ave.,Alhambra,91801-1947,20 South Marengo Avenue,Alhambra,91801-1947,CA,7/1/1980,6/30/2023,N,No Data,No Data,54,Unified School District,68,Continuation High Schools,CON,Continuation School,HS,High School,12-Sep,12-Nov,C,N,N,No Data,34.091236,-118.14194
19757131995430.00,600153,10932,Alhambra Unified,Independence High (Alternative),20 South Marengo Avenue,20 South Marengo Ave.,Alhambra,91801-1947,20 South Marengo Avenue,Alhambra,91801-1947,CA,7/1/1980,6/30/2023,N,No Data,No Data,54,Unified School District,63,Alternative Schools of Choice,ALTSOC,Alternative School of Choice,HS,High School,12-Sep,12-Sep,N,N,N,No Data,34.091236,-118.14194
19642796011217.00,603600,271,Azusa Unified,Alice M. Ellington Elementary,5034 North Clydebank,5034 North Clydebank,Covina,91722-1115,PO Box 500,Azusa,91702-0500,CA,7/1/1980,6/9/2023,N,No Data,No Data,54,Unified School District,60,Elementary Schools (Public),TRAD,Traditional,ELEMHIGH,Elementary-High Combination,K-8,9-Jan,N,N,N,No Data,34.103441,-117.92108
19642796011225.00,603600,269,Azusa Unified,Center Middle,5500 North Cerritos Avenue,5500 North Cerritos Ave.,Azusa,91702-5731,PO Box 500,Azusa,91702-0500,CA,7/1/1980,6/9/2023,N,No Data,No Data,54,Unified School District,62,Intermediate/Middle Schools (Public),TRAD,Traditional,INTMIDJR,Intermediate/Middle/Junior High,8-Jul,9-Jul,N,N,N,No Data,34.113011,-117.89888
19642796011324.00,603600,284,Azusa Unified,Slauson Intermediate,340 West Fifth Street,340 West Fifth St.,Azusa,91702-2912,PO Box 500,Azusa,91702-0500,CA,7/1/1980,6/9/2023,N,No Data,No Data,54,Unified School District,62,Intermediate/Middle Schools (Public),TRAD,Traditional,INTMIDJR,Intermediate/Middle/Junior High,8-Jul,9-Jul,N,N,N,No Data,34.129818,-117.91064
19642796011357.00,603600,282,Azusa Unified,W. R. Powell Elementary,1035 East Mauna Loa,1035 East Mauna Loa,Azusa,91702-4025,PO Box 500,Azusa,91702-0500,CA,7/1/1980,6/9/2023,N,No Data,No Data,54,Unified School District,60,Elementary Schools (Public),TRAD,Traditional,ELEM,Elementary,K-6,7-Jan,N,N,N,No Data,34.125125,-117.88663
19642876011480.00,603690,337,Baldwin Park Unified,Pleasant View Elementary,14900 East Nubia Street,14900 East Nubia St.,Baldwin Park,91706-1999,14900 East Nubia Street,Baldwin Park,91706-1999,CA,7/1/1980,6/9/2023,N,No Data,No Data,54,Unified School District,60,Elementary Schools (Public),TRAD,Traditional,ELEM,Elementary,K-5,K-5,N,N,N,No Data,34.10326,-117.95286
19642796011258.00,603600,272,Azusa Unified,Foothill Middle,151 North Fenimore Avenue,151 North Fenimore Ave.,Azusa,91702-3921,PO Box 500,Azusa,91702-0500,CA,7/1/1980,6/8/2023,N,No Data,No Data,54,Unified School District,62,Intermediate/Middle Schools (Public),TRAD,Traditional,INTMIDJR,Intermediate/Middle/Junior High,8-Jul,9-Jul,N,N,N,No Data,34.123368,-117.89332
19644510141093.00,611460,14595,Downey Unified,Downey Unified Virtual Academy at Lynn L. Pace Education Center,9625 Van Ruiten Street,9625 Van Ruiten St.,Bellflower,90706-2359,9625 Van Ruiten Street,Bellflower,90241,CA,7/1/2021,6/7/2023,N,No Data,No Data,54,Unified School District,63,Alternative Schools of Choice,ALTSOC,Alternative School of Choice,ELEMHIGH,Elementary-High Combination,K-12,12-Jan,V,N,N,No Data,33.904323,-118.1273
19101990140756.00,691078,14576,Los Angeles County Office of Education,T.I.M.E. Community,2100 West Cleveland Avenue,2100 West Cleveland Ave.,Montebello,90640-4032,420 North Montebello Boulevard #300,Montebello,90640,CA,7/1/2021,6/6/2023,Y,2110,No Data,0,County Office of Education (COE),66,High Schools (Public),TRAD,Traditional,HS,High School,12-Sep,11-Sep,N,N,N,No Data,34.01564,-118.12287
19646346014526.00,618390,2258,Inglewood Unified,Warren Lane TK-6 Elementary,2602 West 79th Street,2602 West 79th St.,Inglewood,90305-1032,2602 West 79th Street,Inglewood,90305-1032,CA,7/1/1980,6/30/2022,N,No Data,No Data,54,Unified School District,60,Elementary Schools (Public),TRAD,Traditional,ELEM,Elementary,K-6,K-8,N,N,N,No Data,33.967113,-118.32317
19647330122499.00,622710,12631,Los Angeles Unified,Animo Westside Charter Middle,5456 McConnell Avenue,5456 McConnell Ave.,Los Angeles,90066-2056,"1149 South Hill Street, Suite 600",Los Angeles,90015,CA,8/15/2011,6/30/2022,Y,1217,No Data,54,Unified School District,62,Intermediate/Middle Schools (Public),TRAD,Traditional,INTMIDJR,Intermediate/Middle/Junior High,8-Jun,8-Jun,N,N,Y,No Data,33.977473,-118.41862
19647330128389.00,622710,13685,Los Angeles Unified,"Ivy Bound Academy Math, Science, and Technology Charter Middle 2",20040 Parthenia Street,20040 Parthenia St.,Northridge,91324-3222,20040 Parthenia Street,Northridge,91324-3222,CA,8/16/2013,6/30/2022,Y,1570,No Data,54,Unified School District,62,Intermediate/Middle Schools (Public),TRAD,Traditional,INTMIDJR,Intermediate/Middle/Junior High,8-May,8-May,N,N,N,No Data,34.228191,-118.56985
19647330131870.00,622710,13901,Los Angeles Unified,Resolute Academy Charter,1265 East 112th Street,1265 East 112th St.,Los Angeles,90059-1137,1265 East 112th Street,Los Angeles,90059-1137,CA,8/3/2015,6/30/2022,Y,1642,No Data,54,Unified School District,62,Intermediate/Middle Schools (Public),TRAD,Traditional,INTMIDJR,Intermediate/Middle/Junior High,8-May,8-May,N,N,N,No Data,33.933775,-118.25293
19649076021828.00,631320,4838,Pomona Unified,Diamond Point Elementary,24150 Sunset Crossing Road,24150 Sunset Crossing Rd.,Diamond Bar,91765-1454,24150 Sunset Crossing Road,Diamond Bar,91765-1454,CA,7/1/1980,6/30/2022,N,No Data,No Data,54,Unified School District,60,Elementary Schools (Public),TRAD,Traditional,ELEM,Elementary,P-6,K-6,N,N,N,No Data,34.033072,-117.79705
19649076021919.00,631320,4853,Pomona Unified,Montvue Elementary,1440 San Bernardino Avenue,1440 San Bernardino Ave.,Pomona,91767-3546,1440 San Bernardino Avenue,Pomona,91767-3546,CA,7/1/1980,6/30/2022,N,No Data,No Data,54,Unified School District,60,Elementary Schools (Public),TRAD,Traditional,ELEM,Elementary,P-6,K-6,N,N,N,No Data,34.075834,-117.72208
19649076061642.00,631320,4855,Pomona Unified,Palomares Academy of Health Science,2211 North Orange Grove Avenue,2211 North Orange Grove Ave.,Pomona,91767-2319,2211 North Orange Grove Avenue,Pomona,91767-2319,CA,7/1/1980,6/30/2022,N,No Data,No Data,54,Unified School District,66,High Schools (Public),TRAD,Traditional,HS,High School,12-Jul,12-Jul,N,N,N,No Data,34.08328,-117.74566
19647250125153.00,622500,13001,Long Beach Unified,Beach K-12 Independent Study,2153 W. Hill Street,2153 W. Hill St.,Long Beach,90810-3400,2153 W. Hill Street,Long Beach,90810-3400,CA,9/7/2011,6/15/2022,N,No Data,No Data,54,Unified School District,63,Alternative Schools of Choice,ALTSOC,Alternative School of Choice,ELEMHIGH,Elementary-High Combination,K-12,K-12,N,N,N,No Data,33.797632,-118.21837
19645270133835.00,612180,13988,El Rancho Unified,Ellen Ochoa Prep Academy,8110 Paramount Boulevard,8110 Paramount Blvd.,Pico Rivera,90660-4814,8110 Paramount Boulevard,Pico Rivera,90660-4814,CA,8/17/2016,6/10/2022,N,No Data,No Data,54,Unified School District,66,High Schools (Public),TRAD,Traditional,HS,High School,12-Sep,12-Nov,N,Y,N,No Data,33.969865,-118.11276
19642876011415.00,603690,329,Baldwin Park Unified,Elwin Elementary,13010 East Waco Street,13010 East Waco St.,Baldwin Park,91706-3798,13010 East Waco Street,Baldwin Park,91706-3798,CA,7/1/1980,6/3/2022,N,No Data,No Data,54,Unified School District,60,Elementary Schools (Public),TRAD,Traditional,ELEM,Elementary,K-5,K-5,N,N,N,No Data,34.073889,-117.9903
19644696012918.00,611520,1282,Duarte Unified,Andres Duarte Arts Academy (PK-8),1433 Crestfield Drive,1433 Crestfield Dr.,Duarte,91010-2206,1620 Huntington Drive,Duarte,91010,CA,9/4/1951,5/27/2022,N,No Data,No Data,54,Unified School District,60,Elementary Schools (Public),TRAD,Traditional,ELEM,Elementary,K-8,K-8,N,N,N,No Data,34.137605,-117.95171
19773620140517.00,No Data,14584,SBE - Eagle Collegiate Academy,Eagle Collegiate Academy,33301 Agua Dulce Road,33301 Agua Dulce Rd.,Agua Dulce,91390,Po Box 803234,Santa Clarita,91380,CA,9/7/2021,3/30/2022,Y,2106,No Data,2,State Board of Education,61,Elemen Schools In 1 School Dist. (Public),TRAD,Traditional,ELEM,Elementary,K-8,K-3,N,N,N,No Data,34.494784,-118.32697
19647330131847.00,622710,13868,Los Angeles Unified,Public Policy Charter,1701 Browning Boulevard,1701 Browning Blvd.,Los Angeles,90062-1302,1701 Browning Boulevard,Los Angeles,90062-1302,CA,8/17/2015,10/1/2021,Y,1703,No Data,54,Unified School District,62,Intermediate/Middle Schools (Public),TRAD,Traditional,INTMIDJR,Intermediate/Middle/Junior High,8-May,8-May,N,N,N,No Data,34.012037,-118.30943
19101990140400.00,691078,No Data,Los Angeles County Office of Education,Future Is Now Preparatory,41600 Lake Hughes Road,41600 Lake Hughes Rd.,Lake Hughes,93532-1011,"750 West Seventh Street, Box 811354",Los Angeles,90081,CA,9/16/2021,9/16/2021,Y,2107,No Data,0,County Office of Education (COE),65,K-12 Schools (Public),TRAD,Traditional,ELEMHIGH,Elementary-High Combination,12-Jun,No Data,C,N,N,No Data,34.647813,-118.4881
19647330140897.00,622710,14620,Los Angeles Unified,Calliope Academy,1495 Colorado Boulevard,1495 Colorado Blvd.,Los Angeles,90041-2366,1495 Colorado Boulevard,Los Angeles,90041,CA,8/17/2021,8/17/2021,Y,2096,No Data,54,Unified School District,60,Elementary Schools (Public),TRAD,Traditional,ELEM,Elementary,P-6,No Data,N,N,N,No Data,34.139614,-118.19744
19642876110043.00,603690,10233,Baldwin Park Unified,Santa Fe Fundamental,4650 Baldwin Park Boulevard,4650 Baldwin Park Blvd.,Baldwin Park,91706-2506,4650 Baldwin Park Boulevard,Baldwin Park,91706-2506,CA,9/9/1991,6/30/2021,N,No Data,No Data,54,Unified School District,60,Elementary Schools (Public),TRAD,Traditional,ELEM,Elementary,8-Mar,8-Mar,N,N,N,No Data,34.096833,-117.96485
19647330106435.00,622710,10847,Los Angeles Unified,Camino Nuevo Charter High,1215 West Miramar Street,1215 West Miramar St.,Los Angeles,90026-6115,1215 West Miramar Street,Los Angeles,90026-6115,CA,9/1/2004,6/30/2021,Y,635,No Data,54,Unified School District,66,High Schools (Public),TRAD,Traditional,HS,High School,12-Sep,12-Sep,N,N,N,No Data,34.057982,-118.25793
19647330120048.00,622710,12474,Los Angeles Unified,Alliance College-Ready Middle Academy 5,211 South Avenue 20,211 South Avenue 20,Los Angeles,90031-2508,"601 South Figueroa Street, 4th Floor",Los Angeles,90017,CA,8/31/2009,6/30/2021,Y,1097,No Data,54,Unified School District,62,Intermediate/Middle Schools (Public),TRAD,Traditional,INTMIDJR,Intermediate/Middle/Junior High,8-Jun,8-Jun,N,N,N,No Data,34.072418,-118.22002
19647330126490.00,622710,13095,Los Angeles Unified,Augustus F. Hawkins High B Community Health Advocates,825 West 60th Street,825 West 60th St.,Los Angeles,90044-5512,825 West 60th Street,Los Angeles,90044-5512,CA,8/14/2012,6/30/2021,N,No Data,No Data,54,Unified School District,66,High Schools (Public),TRAD,Traditional,HS,High School,12-Sep,12-Sep,N,N,N,No Data,33.985536,-118.288
19647330126508.00,622710,13166,Los Angeles Unified,Augustus F. Hawkins High C Responsible Indigenous Social Entrepreneurship,825 West 60th Street,825 West 60th St.,Los Angeles,90044-5512,825 West 60th Street,Los Angeles,90044-5512,CA,8/14/2012,6/30/2021,N,No Data,No Data,54,Unified School District,66,High Schools (Public),TRAD,Traditional,HS,High School,12-Sep,12-Sep,N,N,N,No Data,33.985536,-118.288
19647330127217.00,622710,13099,Los Angeles Unified,Alliance Alice M. Baxter College-Ready High,461 West 9th Street,461 West 9th St.,San Pedro,90731-3211,"601 South Figueroa Street, 4th Floor",Los Angeles,90017,CA,8/4/2014,6/30/2021,Y,1460,No Data,54,Unified School District,66,High Schools (Public),TRAD,Traditional,HS,High School,12-Sep,12-Oct,N,N,N,No Data,33.735787,-118.28715
19647330133884.00,622710,13967,Los Angeles Unified,California Collegiate Charter,5101 South Western Avenue,5101 South Western Ave.,Los Angeles,90062-2333,5101 South Western Avenue,Los Angeles,90062-2333,CA,8/8/2016,6/30/2021,Y,1771,No Data,54,Unified School District,65,K-12 Schools (Public),TRAD,Traditional,INTMIDJR,Intermediate/Middle/Junior High,8-Jun,8-Jun,N,N,N,No Data,33.996591,-118.30942
19647331932391.00,622710,3452,Los Angeles Unified,West Hollywood Opportunity,1049 North Fairfax Avenue,1049 North Fairfax Ave.,West Hollywood,90046-6151,1049 North Fairfax Avenue,West Hollywood,90046-6151,CA,7/1/2003,6/30/2021,N,No Data,No Data,54,Unified School District,13,Opportunity Schools,OPP,Opportunity School,HS,High School,12-Jul,12-Oct,C,N,N,No Data,34.090001,-118.36183
19647336019103.00,622710,3339,Los Angeles Unified,Selma Avenue Elementary,6611 Selma Avenue,6611 Selma Ave.,Los Angeles,90028-7113,6611 Selma Avenue,Los Angeles,90028-7113,CA,7/1/1910,6/30/2021,N,No Data,No Data,54,Unified School District,60,Elementary Schools (Public),TRAD,Traditional,ELEM,Elementary,K-5,K-5,N,N,N,No Data,34.099802,-118.33408
19648166020705.00,626190,3912,Mountain View Elementary,Charles T. Kranz Intermediate,12460 Fineview Street,12460 Fineview St.,El Monte,91732-3930,12460 Fineview Street,El Monte,91732-3930,CA,7/1/1980,6/30/2021,N,No Data,No Data,52,Elementary School District,62,Intermediate/Middle Schools (Public),TRAD,Traditional,INTMIDJR,Intermediate/Middle/Junior High,8-Jul,8-Jul,N,N,N,No Data,34.04431,-118.02583
19648166020713.00,626190,3913,Mountain View Elementary,Cogswell Elementary,11050 Fineview Street,11050 Fineview St.,El Monte,91733-2817,11050 Fineview Street,El Monte,91733-2817,CA,7/1/1980,6/30/2021,N,No Data,No Data,52,Elementary School District,60,Elementary Schools (Public),TRAD,Traditional,ELEM,Elementary,K-6,K-6,N,N,N,No Data,34.054305,-118.03443
19648166020739.00,626190,3915,Mountain View Elementary,Jerry Voorhis Elementary,3501 Durfee Avenue,3501 Durfee Ave.,El Monte,91732-2911,3501 Durfee Avenue,El Monte,91732-2911,CA,7/1/1980,6/30/2021,N,No Data,No Data,52,Elementary School District,60,Elementary Schools (Public),TRAD,Traditional,ELEM,Elementary,K-6,K-6,N,N,N,No Data,34.066023,-118.01079
19648166110571.00,626190,454,Mountain View Elementary,Alfred S. Madrid Middle,3300 Gilman Road,3300 Gilman Rd.,El Monte,91732-3226,3300 Gilman Road,El Monte,91732-3226,CA,9/9/1992,6/30/2021,N,No Data,No Data,52,Elementary School District,62,Intermediate/Middle Schools (Public),TRAD,Traditional,INTMIDJR,Intermediate/Middle/Junior High,8-Jul,8-Jul,N,N,N,No Data,34.061965,-118.00994
19648406020853.00,627690,8922,Norwalk-La Mirada Unified,Cesar Chavez Elementary,12110 East Walnut Street,12110 East Walnut St.,Norwalk,90650-4164,12110 East Walnut Street,Norwalk,90650-4164,CA,7/1/1980,6/30/2021,N,No Data,No Data,54,Unified School District,60,Elementary Schools (Public),TRAD,Traditional,ELEM,Elementary,K-5,K-5,N,N,N,No Data,33.903631,-118.07446
19648406116347.00,627690,8032,Norwalk-La Mirada Unified,Los Coyotes Middle,14640 Mercado Avenue,14640 Mercado Ave.,La Mirada,90638-4210,14640 Mercado Avenue,La Mirada,90638-4210,CA,9/1/1999,6/30/2021,N,No Data,No Data,54,Unified School District,62,Intermediate/Middle Schools (Public),TRAD,Traditional,INTMIDJR,Intermediate/Middle/Junior High,8-Jun,8-Jun,N,Y,N,No Data,33.899039,-117.99019
19651516120836.00,642810,10537,Wilsona Elementary,Wilsona Achievement Academy,"41725 North 170th Street, East","41725 North 170th St., East",Lancaster,93535-7123,"41725 North 170th Street, East",Lancaster,93535-7123,CA,9/1/2002,6/30/2021,N,No Data,No Data,52,Elementary School District,69,District Community Day Schools,COMMDAY,Community Day School,ELEM,Elementary,8-Jan,8-Jan,N,N,N,No Data,34.64401,-117.82735
19734456014393.00,616325,2067,Hacienda la Puente Unified,Temple Academy,635 California Avenue,635 California Ave.,La Puente,91744-2602,635 California Avenue,La Puente,91744-2602,CA,7/1/1980,6/30/2021,N,No Data,No Data,54,Unified School District,60,Elementary Schools (Public),TRAD,Traditional,ELEM,Elementary,P-6,K-6,N,N,N,No Data,34.037821,-117.96273
19753090134585.00,600001,14062,Acton-Agua Dulce Unified,Pathways Academy Charter Adult Education,100 East San Marcos Boulevard Suite 350,100 East San Marcos Blvd. Ste. 350,San Marcos,92069-2989,100 East San Marcos Boulevard Suite 350,San Marcos,92069-2989,CA,9/15/2016,6/30/2021,Y,1828,No Data,54,Unified School District,66,High Schools (Public),TRAD,Traditional,HS,High School,12-Sep,12-Sep,C,N,N,No Data,33.141522,-117.16245
19769920133900.00,No Data,13997,SBE - Prepa Tec Los Angeles High,Prepa Tec Los Angeles High,4210 East Gage Street,4210 East Gage St.,Bell,90201-1213,4210 East Gage Street,Bell,90201-1213,CA,8/15/2016,6/30/2021,Y,1789,No Data,2,State Board of Education,67,High Schools In 1 School Dist. (Public),TRAD,Traditional,HS,High School,12-Sep,12-Sep,N,N,N,No Data,33.978427,-118.19221
19647090135038.00,621420,14005,Lennox,Lennox Virtual Academy,10319 Firmona Avenue,10319 Firmona Ave.,Lennox,90304-1419,10319 Firmona Avenue,Lennox,90304-1419,CA,7/1/2016,6/24/2021,N,No Data,No Data,52,Elementary School District,63,Alternative Schools of Choice,ALTSOC,Alternative School of Choice,ELEM,Elementary,K-8,K-8,F,N,N,No Data,33.942838,-118.35774
19647746115547.00,623160,7527,Lynwood Unified,Lynwood Middle,12124 Bullis Road,12124 Bullis Rd.,Lynwood,90262-5106,12124 Bullis Road,Lynwood,90262-5106,CA,9/8/1998,6/16/2021,N,No Data,No Data,54,Unified School District,62,Intermediate/Middle Schools (Public),TRAD,Traditional,INTMIDJR,Intermediate/Middle/Junior High,8-Jul,8-Jul,N,N,N,No Data,33.916535,-118.20425
19650376102966.00,637560,8990,South Whittier Elementary,Monte Vista,12000 Loma Drive,12000 Loma Dr.,Whittier,90604-2643,12000 Loma Drive,Whittier,90604-2643,CA,7/1/1968,6/4/2021,N,No Data,No Data,52,Elementary School District,60,Elementary Schools (Public),TRAD,Traditional,ELEM,Elementary,6-Apr,6-Apr,N,N,N,No Data,33.921177,-118.03353
19101990127522.00,691078,13536,Los Angeles County Office of Education,Optimist Charter,6957 North Figueroa Street,6957 North Figueroa St.,Los Angeles,90042-1245,6957 North Figueroa Street,Los Angeles,90042-1245,CA,7/1/2013,8/13/2020,Y,1506,No Data,0,County Office of Education (COE),66,High Schools (Public),TRAD,Traditional,HS,High School,12-Jul,12-Oct,N,N,N,No Data,34.128523,-118.18775
19643941996297.00,608760,8015,Claremont Unified,Community Day,125 West San Jose Avenue,125 West San Jose Ave.,Claremont,91711-5205,125 West San Jose Avenue,Claremont,91711-5205,CA,9/7/1999,7/24/2020,N,No Data,No Data,54,Unified School District,69,District Community Day Schools,COMMDAY,Community Day School,INTMIDJR,Intermediate/Middle/Junior High,9-Jul,9-Aug,C,N,N,No Data,34.083226,-117.71552
19101990121988.00,691078,12680,Los Angeles County Office of Education,"Scott, Joseph Camp",28700 Bouquet Canyon Road,28700 Bouquet Canyon Rd.,Saugus,91390,9300 Imperial Highway,Downey,90242,CA,7/1/2010,6/30/2020,N,No Data,No Data,0,County Office of Education (COE),14,Juvenile Court Schools,JUV,Juvenile Court School,HS,High School,12-Jul,12-Aug,N,N,N,No Data,34.458546,-118.48774
19646340119552.00,618390,12416,Inglewood Unified,Today's Fresh Start Charter School Inglewood,3405 West Imperial Highway,3405 West Imperial Hwy.,Inglewood,90303-2219,4514 Crenshaw Boulevard,Los Angeles,90043,CA,9/9/2009,6/30/2020,Y,1075,No Data,54,Unified School District,60,Elementary Schools (Public),TRAD,Traditional,ELEM,Elementary,K-6,K-8,N,N,N,No Data,33.930961,-118.33209
19646340121186.00,618390,12576,Inglewood Unified,Children of Promise Preparatory Academy,3130 West 111th Place,3130 West 111th Pl.,Inglewood,90303-2315,3130 West 111th Place,Inglewood,90303-2315,CA,8/25/2010,6/30/2020,Y,1137,No Data,54,Unified School District,60,Elementary Schools (Public),TRAD,Traditional,ELEM,Elementary,K-8,K-8,N,N,N,No Data,33.933822,-118.32749
19647330119651.00,622710,12520,Los Angeles Unified,Sun Valley High,9171 Telfair Avenue,9171 Telfair Ave.,Sun Valley,91352-1844,9171 Telfair Avenue,Sun Valley,91352-1844,CA,9/9/2009,6/30/2020,N,No Data,No Data,54,Unified School District,66,High Schools (Public),TRAD,Traditional,HS,High School,12-Sep,12-Sep,C,N,N,No Data,34.236128,-118.39659
19647330124883.00,622710,12903,Los Angeles Unified,Animo College Preparatory Academy,2265 East 103rd Street,2265 East 103rd St.,Los Angeles,90002-3132,"1149 South Hill Street, Suite 600",Los Angeles,90015,CA,9/7/2011,6/30/2020,Y,1342,No Data,54,Unified School District,66,High Schools (Public),TRAD,Traditional,HS,High School,12-Sep,12-Sep,N,N,N,No Data,33.944503,-118.23114
19647330137554.00,622710,14214,Los Angeles Unified,Excelencia Charter Academy,2821 East Seventh Street,2821 East Seventh St.,Los Angeles,90023-1501,2821 East Seventh Street,Los Angeles,90023-1501,CA,8/9/2018,6/30/2020,Y,1918,No Data,54,Unified School District,60,Elementary Schools (Public),TRAD,Traditional,ELEM,Elementary,K-2,K-2,N,N,N,No Data,34.029607,-118.21028
19647331931658.00,622710,2112,Los Angeles Unified,Frank Lanterman,2328 Saint James Place,2328 Saint James Pl.,Los Angeles,90007-2577,2328 Saint James Place,Los Angeles,90007-2577,CA,7/1/1983,6/30/2020,N,No Data,No Data,54,Unified School District,9,Special Education Schools (Public),SPEC,Special Education School,HS,High School,11-Sep,11-Oct,N,N,N,No Data,34.03255,-118.27861
19647331932458.00,622710,13467,Los Angeles Unified,East Los Angeles Skills Center,3921 Selig Place,3921 Selig Pl.,Los Angeles,90031-3901,3921 Selig Place,Los Angeles,90031-3901,CA,7/1/1980,6/30/2020,N,No Data,No Data,54,Unified School District,70,Adult Education Centers,TRAD,Traditional,A,Adult,Adult,No Data,N,No Data,N,No Data,34.068821,-118.19758
19651360112359.00,642510,11675,William S. Hart Union High,Sequoia,21445 Centre Pointe Parkway,21445 Centre Pointe Pkwy.,Santa Clarita,91350-2684,21445 Centre Pointe Parkway,Santa Clarita,91350-2684,CA,8/17/2006,6/30/2020,N,No Data,No Data,56,High School District,66,High Schools (Public),TRAD,Traditional,HS,High School,12-Jul,12-Jul,N,N,N,No Data,34.412596,-118.51432
19734376061261.00,609620,994,Compton Unified,Roosevelt Middle,1200 East Alondra Boulevard,1200 East Alondra Blvd.,Compton,90221-4306,1200 East Alondra Boulevard,Compton,90221-4306,CA,7/1/1980,6/30/2020,N,No Data,No Data,54,Unified School District,62,Intermediate/Middle Schools (Public),TRAD,Traditional,INTMIDJR,Intermediate/Middle/Junior High,8-Jun,8,C,N,N,No Data,33.888509,-118.2099
19647090112250.00,621420,11614,Lennox,Century Academy for Excellence,2400 West 85th Street,2400 West 85th St.,Inglewood,90305-1816,2400 West 85th Street,Inglewood,90305-1816,CA,9/5/2006,6/12/2020,Y,809,No Data,52,Elementary School District,62,Intermediate/Middle Schools (Public),TRAD,Traditional,INTMIDJR,Intermediate/Middle/Junior High,8-Jun,8-Jun,N,N,N,No Data,33.960794,-118.31956
19648816021588.00,629940,4670,Pasadena Unified,Franklin Elementary,527 West Ventura Street,527 West Ventura St.,Altadena,91001-4936,527 West Ventura Street,Altadena,91001-4936,CA,7/1/1980,5/28/2020,N,No Data,No Data,54,Unified School District,60,Elementary Schools (Public),TRAD,Traditional,ELEM,Elementary,K-5,K-5,N,N,N,No Data,34.191333,-118.1594
19648816021638.00,629940,4674,Pasadena Unified,Jefferson Elementary,1500 East Villa Street,1500 East Villa St.,Pasadena,91106-1322,1500 East Villa Street,Pasadena,91106-1322,CA,7/1/1980,5/28/2020,N,No Data,No Data,54,Unified School District,60,Elementary Schools (Public),TRAD,Traditional,ELEM,Elementary,K-5,K-5,N,N,N,No Data,34.154301,-118.11939
19648816021711.00,629940,7816,Pasadena Unified,Roosevelt Elementary,315 North Pasadena Avenue,315 North Pasadena Ave.,Pasadena,91103-3567,315 North Pasadena Avenue,Pasadena,91103-3567,CA,7/1/1980,5/28/2020,N,No Data,No Data,54,Unified School District,60,Elementary Schools (Public),TRAD,Traditional,ELEM,Elementary,K-5,K-5,N,N,N,No Data,34.151758,-118.15738
19648816058499.00,629940,4692,Pasadena Unified,Woodrow Wilson Middle,300 South Madre Street,300 South Madre St.,Pasadena,91107-4634,300 South Madre Street,Pasadena,91107-4634,CA,7/1/1980,5/28/2020,N,No Data,No Data,54,Unified School District,62,Intermediate/Middle Schools (Public),TRAD,Traditional,INTMIDJR,Intermediate/Middle/Junior High,8-Jun,8-Jun,N,N,N,No Data,34.14117,-118.08089
19649800138743.00,635700,14607,Santa Monica-Malibu Unified,PBL High,601 Pico Boulevard,601 Pico Blvd.,Santa Monica,90405-1224,601 Pico Boulevard,Santa Monica,90405-1224,CA,8/22/2019,8/22/2019,N,No Data,No Data,54,Unified School District,66,High Schools (Public),TRAD,Traditional,HS,High School,12-Sep,No Data,N,N,N,No Data,34.011345,-118.48519
19647330139014.00,622710,14439,Los Angeles Unified,GANAS Academy,23536 Catskill Avenue,23536 Catskill Ave.,Carson,90745-5412,23536 Catskill Avenue,Carson,90745,CA,8/14/2019,8/14/2019,Y,2026,No Data,54,Unified School District,60,Elementary Schools (Public),TRAD,Traditional,ELEM,Elementary,K-5,No Data,N,N,N,No Data,33.8116,-118.27079
19101990122028.00,691078,12747,Los Angeles County Office of Education,Onizuka Camp,5300 West Avenue l,5300 West Ave. l,Lancaster,93536,9300 Imperial Highway,Downey,90242-2813,CA,7/1/2010,7/30/2019,N,No Data,No Data,0,County Office of Education (COE),14,Juvenile Court Schools,JUV,Juvenile Court School,HS,High School,12-Jul,12-Nov,N,N,N,No Data,34.660165,-118.22541
19101990122036.00,691078,12626,Los Angeles County Office of Education,McNair Camp,5300 West Avenue l,5300 West Ave. l,Lancaster,93536,9300 Imperial Highway,Downey,90242-2813,CA,7/1/2010,7/30/2019,N,No Data,No Data,0,County Office of Education (COE),14,Juvenile Court Schools,JUV,Juvenile Court School,HS,High School,12-Jul,12-Oct,N,N,N,No Data,34.660165,-118.22541
19647330127977.00,622710,13378,Los Angeles Unified,Metro Charter,2635 Pasadena Avenue,2635 Pasadena Ave.,Los Angeles,90031-2323,2635 Pasadena Avenue,Los Angeles,90031-2323,CA,9/3/2013,7/8/2019,Y,1535,No Data,54,Unified School District,60,Elementary Schools (Public),TRAD,Traditional,ELEM,Elementary,K-5,K-5,N,N,N,No Data,34.078001,-118.2157
19101990123604.00,691078,12742,Los Angeles County Office of Education,Phoenix Academy Residential Education Center,11600 Eldrige Avenue,11600 Eldrige Ave.,Lake View Terrace,91342-6522,9300 Imperial Highway,Downey,90242,CA,10/25/2010,6/30/2019,N,No Data,No Data,0,County Office of Education (COE),14,Juvenile Court Schools,JUV,Juvenile Court School,HS,High School,12-Jul,12-Oct,N,N,Y,No Data,34.280288,-118.38275
19101991995232.00,691078,10186,Los Angeles County Office of Education,Los Angeles County Special Education,9300 Imperial Highway,9300 Imperial Hwy.,Downey,90242-2813,9300 Imperial Highway,Downey,90242-2813,CA,7/1/1980,6/30/2019,N,No Data,No Data,0,County Office of Education (COE),9,Special Education Schools (Public),SPEC,Special Education School,ELEMHIGH,Elementary-High Combination,K-12,K-12,N,N,Y,No Data,33.916978,-118.1286
19646340120311.00,618390,12531,Inglewood Unified,ICEF Inglewood Middle Charter Academy,304 East Spruce Avenue,304 East Spruce Ave.,Inglewood,90301-2711,304 East Spruce Avenue,Inglewood,90301-2711,CA,9/8/2009,6/30/2019,Y,1122,No Data,54,Unified School District,62,Intermediate/Middle Schools (Public),TRAD,Traditional,INTMIDJR,Intermediate/Middle/Junior High,8-Jun,8-Jun,N,N,N,No Data,33.958349,-118.34984
19647330119974.00,622710,12537,Los Angeles Unified,PUC Santa Rosa Charter Academy,3838 Eagle Rock Boulevard,3838 Eagle Rock Blvd.,Los Angeles,90065-3638,"1405 North San Fernando Boulevard, Suite 303",Burbank,91504,CA,9/16/2009,6/30/2019,Y,1091,No Data,54,Unified School District,62,Intermediate/Middle Schools (Public),TRAD,Traditional,INTMIDJR,Intermediate/Middle/Junior High,8-Jun,8-Jun,N,N,N,No Data,34.118988,-118.2309
19647330124024.00,622710,12939,Los Angeles Unified,Animo Phillis Wheatley Charter Middle,12226 South Western Avenue,12226 South Western Ave.,Los Angeles,90047-5240,"1149 S. Hill Street, Suite 600",Los Angeles,90015,CA,8/15/2011,6/30/2019,Y,1289,No Data,54,Unified School District,62,Intermediate/Middle Schools (Public),TRAD,Traditional,INTMIDJR,Intermediate/Middle/Junior High,8-Jun,8-Jun,N,N,N,No Data,33.92109,-118.30786
19647330127829.00,622710,13412,Los Angeles Unified,Studio,2050 North San Fernando Road,2050 North San Fernando Rd.,Los Angeles,90065-1267,2050 North San Fernando Road,Los Angeles,90065-1267,CA,8/12/2013,6/30/2019,N,No Data,No Data,54,Unified School District,62,Intermediate/Middle Schools (Public),TRAD,Traditional,INTMIDJR,Intermediate/Middle/Junior High,8-Jun,8-Jun,N,N,N,No Data,34.10226,-118.23739
19647330129825.00,622710,13742,Los Angeles Unified,Clemente Charter,5701 Fishburn Avenue,5701 Fishburn Ave.,Maywood,90270-2819,5701 Fishburn Avenue,Maywood,90270-2819,CA,8/13/2014,6/30/2019,Y,1640,No Data,54,Unified School District,60,Elementary Schools (Public),TRAD,Traditional,ELEM,Elementary,K-6,K-5,N,N,N,No Data,33.989428,-118.19135
19647330129874.00,622710,13749,Los Angeles Unified,Community Preparatory Academy,7019 South Van Ness Avenue,7019 South Van Ness Ave.,Los Angeles,90044-1659,7019 South Van Ness Avenue,Los Angeles,90044-1659,CA,8/12/2014,6/30/2019,Y,1656,No Data,54,Unified School District,60,Elementary Schools (Public),TRAD,Traditional,ELEM,Elementary,K-8,K-8,N,N,N,No Data,33.975705,-118.31838
19647330131839.00,622710,13881,Los Angeles Unified,Summit Preparatory Charter,644 56th Street,644 56th St.,Los Angeles,90011-4660,644 56th Street,Los Angeles,90011-4660,CA,8/12/2015,6/30/2019,Y,1615,No Data,54,Unified School District,60,Elementary Schools (Public),TRAD,Traditional,INTMIDJR,Intermediate/Middle/Junior High,8-Apr,8-Apr,N,N,N,No Data,33.990892,-118.26436
19651100123109.00,642450,12746,Whittier City,Whittier Area Community Day,5777 Lockheed Avenue,5777 Lockheed Ave.,Whittier,90606-1030,5777 Lockheed Avenue,Whittier,90606-1030,CA,9/1/2010,6/30/2019,N,No Data,No Data,52,Elementary School District,69,District Community Day Schools,COMMDAY,Community Day School,INTMIDJR,Intermediate/Middle/Junior High,8-Jun,8-Jul,N,N,N,No Data,33.995114,-118.0651
19734370137257.00,609620,14317,Compton Unified,Ingenium Wings Independent Study - Compton,400 South Santa Fe Avenue,400 South Santa Fe Ave.,Compton,90221-3244,400 South Santa Fe Avenue,Compton,90221-3244,CA,8/14/2018,6/30/2019,Y,1953,No Data,54,Unified School District,65,K-12 Schools (Public),TRAD,Traditional,ELEMHIGH,Elementary-High Combination,K-12,12-Jan,V,N,N,No Data,33.893146,-118.21542
19740881995018.00,600103,10916,La Puente Valley ROP,La Puente Valley ROP,341 La Seda Road,341 La Seda Rd.,La Puente,91744-5980,PO Box 970,La Puente,91744,CA,7/1/1980,6/30/2019,N,No Data,No Data,98,Regional Occupation Center/Program (ROC/P),98,ROC/ROP,No Data,No Data,HS,High School,12-Sep,No Data,No Data,No Data,N,No Data,34.012425,-117.89907
19753090129411.00,600001,13793,Acton-Agua Dulce Unified,SCALE Leadership Academy,32248 Crown Valley Road,32248 Crown Valley Rd.,Acton,93510-2620,14816 Central Avenue,Chino,91710,CA,8/1/2014,6/30/2019,Y,1636,No Data,54,Unified School District,65,K-12 Schools (Public),TRAD,Traditional,ELEMHIGH,Elementary-High Combination,K-12,K-12,F,N,Y,No Data,34.472692,-118.19658
19753090129742.00,600001,13764,Acton-Agua Dulce Unified,Inspire Charter,32248 Crown Valley Road,32248 Crown Valley Rd.,Acton,93510-1416,32248 Crown Valley Road,Acton,93510-1416,CA,7/1/2014,6/30/2019,Y,1668,No Data,54,Unified School District,65,K-12 Schools (Public),TRAD,Traditional,ELEMHIGH,Elementary-High Combination,K-12,K-12,V,N,Y,No Data,34.472692,-118.19658
19753090130955.00,600001,13838,Acton-Agua Dulce Unified,Valiant Academy of Los Angeles,32248 Crown Valley Road,32248 Crown Valley Rd.,Acton,93510-4548,4684 Ontario Mills Parkway,Ontario,91764,CA,8/13/2014,6/30/2019,Y,1677,No Data,54,Unified School District,65,K-12 Schools (Public),TRAD,Traditional,ELEMHIGH,Elementary-High Combination,K-12,K-12,F,N,Y,No Data,34.472692,-118.19658
19649806022537.00,635700,10248,Santa Monica-Malibu Unified,Juan Cabrillo Elementary,30237 Morning View Drive,30237 Morning View Dr.,Malibu,90265-3616,30237 Morning View Drive,Malibu,90265-3616,CA,9/1/1991,6/20/2019,N,No Data,No Data,54,Unified School District,60,Elementary Schools (Public),TRAD,Traditional,ELEM,Elementary,K-5,K-5,N,N,N,No Data,34.024525,-118.82876
19647250101741.00,622500,11291,Long Beach Unified,Select Community Day (Secondary),2221 Argonne Avenue,2221 Argonne Ave.,Long Beach,90815-2527,2221 Argonne Avenue,Long Beach,90815-2527,CA,9/2/2003,6/15/2019,N,No Data,No Data,54,Unified School District,69,District Community Day Schools,COMMDAY,Community Day School,HS,High School,12-Jul,12,N,N,N,No Data,33.797004,-118.13619
19642796011266.00,603600,274,Azusa Unified,Gladstone Street Elementary,1040 East Gladstone Street,1040 East Gladstone St.,Azusa,91702-4837,PO Box 500,Azusa,91702-0500,CA,7/1/1980,6/6/2019,N,No Data,No Data,54,Unified School District,60,Elementary Schools (Public),TRAD,Traditional,ELEM,Elementary,K-5,K-5,N,N,N,No Data,34.114008,-117.88614
19642796011308.00,603600,279,Azusa Unified,Mountain View Elementary,201 North Vernon Avenue,201 North Vernon Ave.,Azusa,91702-4335,PO Box 500,Azusa,91702-0500,CA,7/1/1980,6/6/2019,N,No Data,No Data,54,Unified School District,60,Elementary Schools (Public),TRAD,Traditional,ELEM,Elementary,K-5,K-5,N,N,N,No Data,34.119818,-117.91633
19648816021547.00,629940,4664,Pasadena Unified,Cleveland Elementary,524 Palisade Street,524 Palisade St.,Pasadena,91103-2056,524 Palisade Street,Pasadena,91103-2056,CA,7/1/1980,5/30/2019,N,No Data,No Data,54,Unified School District,60,Elementary Schools (Public),TRAD,Traditional,ELEM,Elementary,K-5,K-5,N,N,N,No Data,34.170993,-118.16167
19101990122051.00,691078,12775,Los Angeles County Office of Education,Scobee Camp,5300 West Avenue l,5300 West Ave. l,Lancaster,93536,9300 Imperial Highway,Downey,90242-2813,CA,7/1/2010,11/1/2018,N,No Data,No Data,0,County Office of Education (COE),14,Juvenile Court Schools,JUV,Juvenile Court School,HS,High School,12-Jul,12,N,N,N,No Data,34.660165,-118.22541
19768690135988.00,601428,14167,Wiseburn Unified,RISE High,13500 Aviation Boulevard,13500 Aviation Blvd.,Hawthorne,90250-6462,13500 Aviation Boulevard,Hawthorne,90250-6462,CA,8/17/2017,9/1/2018,Y,1865,No Data,54,Unified School District,66,High Schools (Public),TRAD,Traditional,HS,High School,12-Sep,12-Sep,N,N,N,No Data,33.908904,-118.37765
19647330135129.00,622710,14063,Los Angeles Unified,PUC International Preparatory Academy,1800 Colorado Boulevard,1800 Colorado Blvd.,Los Angeles,90041-1340,1405 North San Fernando Boulevard Suite 303,Burbank,91504,CA,8/28/2017,8/22/2018,Y,1820,No Data,54,Unified School District,60,Elementary Schools (Public),TRAD,Traditional,ELEM,Elementary,K-8,K-7,N,N,N,No Data,34.139013,-118.20657
19647740127845.00,623160,13431,Lynwood Unified,Lynwood Alternative,11387 Bullis Road,11387 Bullis Rd.,Lynwood,90262-3660,11387 Bullis Road,Lynwood,90262-3660,CA,9/15/2015,7/1/2018,N,No Data,No Data,54,Unified School District,69,District Community Day Schools,COMMDAY,Community Day School,HS,High School,12-Jul,11-Sep,N,N,N,No Data,33.925264,-118.2003
19101990122044.00,691078,12682,Los Angeles County Office of Education,Jarvis Camp,5300 West Avenue l,5300 West Ave. l,Lancaster,93536,9300 Imperial Highway,Downey,90242-2813,CA,7/1/2010,6/30/2018,N,No Data,No Data,0,County Office of Education (COE),14,Juvenile Court Schools,JUV,Juvenile Court School,HS,High School,12-Jul,12-Sep,N,N,N,No Data,34.660165,-118.22541
19101990122077.00,691078,12707,Los Angeles County Office of Education,Smith Camp,5300 West Avenue l,5300 West Ave. l,Lancaster,93536,9300 Imperial Highway,Downey,90242-2813,CA,7/1/2010,6/30/2018,N,No Data,No Data,0,County Office of Education (COE),14,Juvenile Court Schools,JUV,Juvenile Court School,HS,High School,12-Jul,12-Sep,N,N,N,No Data,34.660165,-118.22541
19101991996008.00,691078,7106,Los Angeles County Office of Education,Soledad Enrichment Action Charter High,222 North Virgil Avenue,222 North Virgil Ave.,Los Angeles,90004-3622,222 North Virgil Avenue,Los Angeles,90004-3622,CA,12/9/1996,6/30/2018,Y,124,No Data,0,County Office of Education (COE),10,County Community,COMM,County Community School,HS,High School,12-Sep,12-Sep,N,N,Y,No Data,34.075643,-118.28682
19642870114397.00,603690,12018,Baldwin Park Unified,Opportunities For Learning - Baldwin Park II,320 North Halstead Street Suite 220,320 North Halstead St. Ste. 220,Pasadena,91107-3147,320 North Halstead Street Suite 220,Pasadena,91107-3147,CA,7/1/2007,6/30/2018,Y,874,No Data,54,Unified School District,66,High Schools (Public),TRAD,Traditional,HS,High School,12-Jul,12-Jul,N,N,Y,No Data,34.152079,-118.07903
19644696057665.00,611520,1287,Duarte Unified,Northview Village (8th Grade),1565 East Central Avenue,1565 East Central Ave.,Duarte,91010-2599,1620 Huntington Drive,Duarte,91010,CA,7/1/1980,6/30/2018,N,No Data,No Data,54,Unified School District,62,Intermediate/Middle Schools (Public),TRAD,Traditional,INTMIDJR,Intermediate/Middle/Junior High,8,8,N,N,N,No Data,34.137529,-117.97355
19646346057756.00,618390,2259,Inglewood Unified,Monroe (Albert F.) Magnet Middle School,10711 10th Avenue,10711 10th Ave.,Inglewood,90303-2015,10711 10th Avenue,Inglewood,90303-2015,CA,7/1/1980,6/30/2018,N,No Data,No Data,54,Unified School District,62,Intermediate/Middle Schools (Public),TRAD,Traditional,INTMIDJR,Intermediate/Middle/Junior High,8-Jun,8-Jun,N,Y,N,No Data,33.93929,-118.32735
19647330112334.00,622710,11662,Los Angeles Unified,Gifted Academy of Mathematics and Entrepreneurial Studies,2506 West Imperial Highway,2506 West Imperial Hwy.,Hawthorne,90250-1953,2506 West Imperial Highway,Hawthorne,90250-1953,CA,9/12/2006,6/30/2018,Y,829,No Data,54,Unified School District,60,Elementary Schools (Public),TRAD,Traditional,ELEM,Elementary,K-5,K-5,N,N,N,No Data,33.930496,-118.32116
19647330117630.00,622710,12347,Los Angeles Unified,Magnolia Science Academy 5,18230 Kittridge Street,18230 Kittridge St.,Reseda,91335-6121,18230 Kittridge Street,Reseda,91335-6121,CA,9/3/2008,6/30/2018,Y,987,Directly funded,54,Unified School District,62,Intermediate/Middle Schools (Public),TRAD,Traditional,ELEMHIGH,Elementary-High Combination,9-Jun,10-Jun,N,N,N,No Data,34.188617,-118.52935
19647330117945.00,622710,12227,Los Angeles Unified,ICEF Lou Dantzler Preparatory Academy,5940 South Budlong Avenue,5940 South Budlong Ave.,Los Angeles,90044-2815,3855 West Slauson Avenue,Los Angeles,90043,CA,9/8/2008,6/30/2018,Y,1038,No Data,54,Unified School District,60,Elementary Schools (Public),TRAD,Traditional,ELEM,Elementary,K-8,K-7,N,N,N,No Data,33.986184,-118.29393
19647330124420.00,622710,12953,Los Angeles Unified,School of History and Dramatic Arts at Sonia Sotomayor Learning Academies,2050 San Fernando Road,2050 San Fernando Rd.,Los Angeles,90065-1267,2050 San Fernando Road,Los Angeles,90065-1267,CA,9/7/2011,6/30/2018,N,No Data,No Data,54,Unified School District,66,High Schools (Public),TRAD,Traditional,HS,High School,12-Sep,12-Sep,N,N,N,No Data,34.290459,-118.44949
19647330124446.00,622710,12881,Los Angeles Unified,Dr. Julian Nava Learning Academies-School of Arts and Culture,1420 East Adams Boulevard,1420 East Adams Blvd.,Los Angeles,90011-1820,1420 East Adams Boulevard,Los Angeles,90011-1820,CA,9/7/2011,6/30/2018,N,No Data,No Data,54,Unified School District,62,Intermediate/Middle Schools (Public),TRAD,Traditional,INTMIDJR,Intermediate/Middle/Junior High,8-Jun,8-Jun,N,N,N,No Data,34.015715,-118.24877
19647330127852.00,622710,13527,Los Angeles Unified,Executive Preparatory Academy of Finance,2814 Manhattan Beach Boulevard,2814 Manhattan Beach Blvd.,Gardena,90249-4534,2814 Manhattan Beach Boulevard,Gardena,90249-4534,CA,8/12/2013,6/30/2018,Y,1525,No Data,54,Unified School District,66,High Schools (Public),TRAD,Traditional,HS,High School,12-Sep,12-Sep,N,N,N,No Data,33.887316,-118.32531
19647330127878.00,622710,13319,Los Angeles Unified,Pathways Community,8800 South San Pedro Street,8800 South San Pedro St.,Los Angeles,90003-3541,8800 South San Pedro Street,Los Angeles,90003-3541,CA,8/7/2014,6/30/2018,Y,1537,No Data,54,Unified School District,66,High Schools (Public),TRAD,Traditional,HS,High School,12-Sep,12-Sep,N,N,N,No Data,33.95715,-118.26875
19647330128116.00,622710,13212,Los Angeles Unified,Global Education Academy Middle,1512 Arlington Avenue,1512 Arlington Ave.,Los Angeles,90019-4552,1512 Arlington Avenue,Los Angeles,90019-4552,CA,9/3/2013,6/30/2018,Y,1561,No Data,54,Unified School District,62,Intermediate/Middle Schools (Public),TRAD,Traditional,INTMIDJR,Intermediate/Middle/Junior High,8-Jun,8-Jun,N,N,N,No Data,34.045097,-118.3172
19648576119580.00,629580,10531,Palmdale Elementary,Guidance Charter,3838 East Avenue R,3838 East Avenue R,Palmdale,93550-2542,3838 East Avenue R,Palmdale,93550-2542,CA,11/1/2001,6/30/2018,Y,427,No Data,52,Elementary School District,65,K-12 Schools (Public),TRAD,Traditional,ELEMHIGH,Elementary-High Combination,K-12,K-12,C,N,N,No Data,34.573129,-118.0609
19753090131201.00,600001,13828,Acton-Agua Dulce Unified,"Albert Einstein Academy for Letters, Arts & Sciences - Agua Dulce Partnership Academy",11311 Frascati Street,11311 Frascati St.,Agua Dulce,91390-4840,11311 Frascati Street,Agua Dulce,91390-4840,CA,9/2/2014,6/30/2018,Y,1694,No Data,54,Unified School District,60,Elementary Schools (Public),TRAD,Traditional,ELEMHIGH,Elementary-High Combination,K-6,K-12,N,N,N,No Data,34.48736,-118.33414
19753090131540.00,600001,13867,Acton-Agua Dulce Unified,Method Schools K-8,317 East Foothill Boulevard,317 East Foothill Blvd.,Arcadia,91006-1848,317 East Foothill Boulevard,Arcadia,91006-1848,CA,7/1/2015,6/30/2018,Y,1698,No Data,54,Unified School District,60,Elementary Schools (Public),TRAD,Traditional,ELEM,Elementary,K-8,K-8,F,N,Y,No Data,34.151357,-118.02213
19753090131557.00,600001,13853,Acton-Agua Dulce Unified,Method Schools High,317 East Foothill Boulevard,317 East Foothill Blvd.,Arcadia,91006-1848,317 East Foothill Boulevard,Arcadia,91006-1848,CA,7/1/2015,6/30/2018,Y,1697,Directly funded,54,Unified School District,66,High Schools (Public),TRAD,Traditional,HS,High School,12-Sep,12-Oct,F,N,Y,No Data,34.151357,-118.02213
19753090132191.00,600001,13903,Acton-Agua Dulce Unified,"Albert Einstein Academy for Letters, Arts and Sciences-STEAM",25443 Orchard Village Road,25443 Orchard Village Rd.,Valencia,91355-2935,25443 Orchard Village Road,Valencia,91355-2935,CA,8/24/2015,6/30/2018,Y,1734,No Data,54,Unified School District,60,Elementary Schools (Public),TRAD,Traditional,ELEM,Elementary,K-6,K-6,N,N,N,No Data,34.390494,-118.5491
19753090133231.00,600001,13785,Acton-Agua Dulce Unified,"Albert Einstein Academy for Letters, Arts & Sciences - Odyssey",8844 Burton Way,8844 Burton Way,Beverly Hills,90211-1644,8844 Burton Way,Beverly Hills,90211-1644,CA,8/24/2015,6/30/2018,Y,1596,No Data,54,Unified School District,65,K-12 Schools (Public),TRAD,Traditional,ELEM,Elementary,K-12,K-7,N,N,N,No Data,34.071847,-118.38524
19770730135947.00,601448,12120,SBE - Celerity Rolas,Celerity Rolas Charter,1495 Colorado Boulevard,1495 Colorado Blvd.,Los Angeles,90041-2340,3580 Wilshire Boulevard Suite 1130,Los Angeles,90010,CA,8/15/2017,6/30/2018,Y,1857,No Data,2,State Board of Education,61,Elemen Schools In 1 School Dist. (Public),TRAD,Traditional,ELEM,Elementary,K-8,K-6,N,N,Y,No Data,34.139635,-118.19738
19101990121970.00,691078,12804,Los Angeles County Office of Education,"Gonzales, David Camp",1301 North Las Virgenes Road,1301 North Las Virgenes Rd.,Calabasas,91302,9300 Imperial Highway,Downey,90242,CA,7/1/2010,2/28/2018,N,No Data,No Data,0,County Office of Education (COE),14,Juvenile Court Schools,JUV,Juvenile Court School,HS,High School,12-Jul,12-Nov,N,N,N,No Data,34.089615,-118.70551
19101990121947.00,691078,12732,Los Angeles County Office of Education,"Miller, Fred C. Camp",433 South Encinal Canyon Road,433 South Encinal Canyon Rd.,Malibu,90265,9300 Imperial Highway,Downey,90242,CA,7/1/2010,6/30/2017,N,No Data,No Data,0,County Office of Education (COE),14,Juvenile Court Schools,JUV,Juvenile Court School,HS,High School,12-Jul,12-Nov,N,N,N,No Data,34.091702,-118.83591
19101990121996.00,691078,12743,Los Angeles County Office of Education,"Scudder, Kenyon Camp",28750 Bouquet Canyon Road,28750 Bouquet Canyon Rd.,Saugus,91390,9300 Imperial Highway,Downey,90242,CA,7/1/2010,6/30/2017,N,No Data,No Data,0,County Office of Education (COE),14,Juvenile Court Schools,JUV,Juvenile Court School,HS,High School,12-Jul,12-Sep,N,N,N,No Data,34.460098,-118.48525
19101990122002.00,691078,12653,Los Angeles County Office of Education,"Munz, John Camp",42220 North Lake Hughes Road,42220 North Lake Hughes Rd.,Lake Hughes,93532,9300 Imperial Highway,Downey,90242,CA,7/1/2010,6/30/2017,N,No Data,No Data,0,County Office of Education (COE),14,Juvenile Court Schools,JUV,Juvenile Court School,HS,High School,12-Jul,12-Oct,N,N,N,No Data,34.654273,-118.47016
19101990122010.00,691078,12675,Los Angeles County Office of Education,"Mendenhall, William Camp",42230 North Lake Hughes Road,42230 North Lake Hughes Rd.,Lake Hughes,93532,9300 Imperial Highway,Downey,90242,CA,7/1/2010,6/30/2017,N,No Data,No Data,0,County Office of Education (COE),14,Juvenile Court Schools,JUV,Juvenile Court School,HS,High School,12-Jul,12-Oct,N,N,N,No Data,34.652898,-118.48068
19101990122069.00,691078,12714,Los Angeles County Office of Education,Resnik Camp,5300 West Avenue l,5300 West Ave. l,Lancaster,93536,9300 Imperial Highway,Downey,90242-2813,CA,7/1/2010,6/30/2017,N,No Data,No Data,0,County Office of Education (COE),14,Juvenile Court Schools,JUV,Juvenile Court School,HS,High School,12-Jul,12-Sep,N,N,Y,No Data,34.660165,-118.22541
19101990123612.00,691078,12649,Los Angeles County Office of Education,Pacific Lodge Residential Education Center,4900 Serrania Avenue,4900 Serrania Ave.,Woodland Hills,91364,9300 Imperial Highway,Downey,90242,CA,10/25/2010,6/30/2017,N,No Data,No Data,0,County Office of Education (COE),14,Juvenile Court Schools,JUV,Juvenile Court School,HS,High School,12-Jul,12-Oct,N,N,N,No Data,34.157824,-118.58813
19101990127274.00,691078,13159,Los Angeles County Office of Education,Westchester Secondary Charter,7001 South Street Andrews Place,7001 South St. Andrews Pl.,Los Angeles,90047-1833,7001 South Street Andrews Place,Los Angeles,90047-1833,CA,9/4/2013,6/30/2017,Y,1495,No Data,0,County Office of Education (COE),65,K-12 Schools (Public),TRAD,Traditional,ELEMHIGH,Elementary-High Combination,12-Jun,12-Jun,N,N,N,No Data,33.976593,-118.31225
19101991996172.00,691078,8006,Los Angeles County Office of Education,East Los Angeles County Community,1260 South Monterey Pass Road,1260 South Monterey Pass Rd.,Monterey Park,91754-3617,1260 South Monterey Pass Road,Monterey Park,91754-3617,CA,2/15/1999,6/30/2017,N,No Data,No Data,0,County Office of Education (COE),10,County Community,COMM,County Community School,HS,High School,12-Jul,12-Aug,N,N,N,No Data,34.048695,-118.16083
19643371996099.00,606450,7514,Burbank Unified,Options for Youth-Burbank Charter,1610 West Burbank Boulevard,1610 West Burbank Blvd.,Burbank,91506-1311,"199 South Los Robles Avenue, Suite 700",Pasadena,91101,CA,9/15/1997,6/30/2017,Y,130,No Data,54,Unified School District,65,K-12 Schools (Public),TRAD,Traditional,HS,High School,K-12,12-Jul,N,N,Y,No Data,34.18182,-118.32893
19647330115766.00,622710,12162,Los Angeles Unified,Celerity Dyad Charter,4501 South Wadsworth,4501 South Wadsworth,Los Angeles,90011-3637,2069 West Slauson Avenue,Los Angeles,90047,CA,9/17/2007,6/30/2017,Y,958,No Data,54,Unified School District,60,Elementary Schools (Public),TRAD,Traditional,ELEM,Elementary,K-8,K-8,N,N,N,No Data,34.0026,-118.2593
19647330115782.00,622710,12120,Los Angeles Unified,Celerity Troika Charter,1495 Colorado Boulevard,1495 Colorado Blvd.,Los Angeles,90041-2340,2069 West Slauson Avenue,Los Angeles,90047,CA,9/5/2007,6/30/2017,Y,961,No Data,54,Unified School District,60,Elementary Schools (Public),TRAD,Traditional,ELEM,Elementary,K-8,K-8,N,N,N,No Data,34.139305,-118.19754
19647330121012.00,622710,12527,Los Angeles Unified,Westside Innovative School House,6550 West 80th Street,6550 West 80th St.,Los Angeles,90045-1127,6550 West 80th Street,Los Angeles,90045-1127,CA,9/7/2010,6/30/2017,Y,1149,No Data,54,Unified School District,60,Elementary Schools (Public),TRAD,Traditional,ELEM,Elementary,K-6,K-6,N,N,N,No Data,33.967745,-118.40387
19647330122275.00,622710,12733,Los Angeles Unified,Environmental and Social Policy Magnet,3501 North Broadway,3501 North Broadway,Los Angeles,90031-2856,3501 North Broadway,Los Angeles,90031-2856,CA,9/13/2010,6/30/2017,N,No Data,No Data,54,Unified School District,66,High Schools (Public),TRAD,Traditional,HS,High School,12-Sep,12-Sep,N,Y,N,No Data,34.074707,-118.20403
19647330126078.00,622710,13183,Los Angeles Unified,Apple Academy Charter Public,4920 South Western Avenue,4920 South Western Ave.,Los Angeles,90062-2326,4920 South Western Avenue,Los Angeles,90062-2326,CA,8/21/2012,6/30/2017,Y,1406,No Data,54,Unified School District,60,Elementary Schools (Public),TRAD,Traditional,ELEM,Elementary,K-5,K-5,N,N,N,No Data,33.998521,-118.30867
19647330126185.00,622710,13044,Los Angeles Unified,Academy of Science and Engineering,5753 Rodeo Road,5753 Rodeo Rd.,Los Angeles,90016-5013,5753 Rodeo Road,Los Angeles,90016-5013,CA,8/14/2012,6/30/2017,Y,1411,No Data,54,Unified School District,66,High Schools (Public),TRAD,Traditional,HS,High School,12-Sep,12-Sep,N,N,N,No Data,34.02233,-118.37128
19647330128355.00,622710,13688,Los Angeles Unified,The Incubator,"7400 West Manchester, Building K","7400 West Manchester, Bldg. K",Los Angeles,90045-2322,"7400 West Manchester, Building K",Los Angeles,90045-2322,CA,8/12/2013,6/30/2017,N,No Data,No Data,54,Unified School District,65,K-12 Schools (Public),TRAD,Traditional,INTMIDJR,Intermediate/Middle/Junior High,12-Jun,9-Jun,N,N,N,No Data,33.95932,-118.42862
19647330129379.00,622710,13788,Los Angeles Unified,Westside Innovative School House Charter Middle,7615 Cowan Avenue,7615 Cowan Ave.,Los Angeles,90045-1206,7615 Cowan Avenue,Los Angeles,90045-1206,CA,8/18/2014,6/30/2017,Y,1627,Directly funded,54,Unified School District,62,Intermediate/Middle Schools (Public),TRAD,Traditional,INTMIDJR,Intermediate/Middle/Junior High,8-Jul,8-Jul,N,N,N,No Data,33.972654,-118.40542
19647330129775.00,622710,13770,Los Angeles Unified,Banning Academies of Creative and Innovative Sciences (BACIS),1527 Lakme Avenue,1527 Lakme Ave.,Wilmington,90744-1526,1527 Lakme Avenue,Wilmington,90744-1526,CA,8/11/2014,6/30/2017,N,No Data,No Data,54,Unified School District,66,High Schools (Public),TRAD,Traditional,HS,High School,12-Sep,12-Sep,N,Y,N,No Data,33.794174,-118.26107
19647330131680.00,622710,13870,Los Angeles Unified,Renaissance Arts Academy K-12,1816 Colorado Boulevard,1816 Colorado Blvd.,Los Angeles,90041,1800 Colorado Boulevard,Los Angeles,90041,CA,9/8/2015,6/30/2017,Y,1704,No Data,54,Unified School District,65,K-12 Schools (Public),TRAD,Traditional,ELEM,Elementary,K-12,6-Feb,N,N,N,No Data,34.13924,-118.20673
19647331934132.00,622710,13293,Los Angeles Unified,Huntington Park/Bell Community Adult,2945 Belgrave Avenue,2945 Belgrave Ave.,Huntington Park,90255,2945 Belgrave Avenue,Huntington Park,90255,CA,7/1/1980,6/30/2017,N,No Data,No Data,54,Unified School District,70,Adult Education Centers,TRAD,Traditional,A,Adult,Adult,No Data,N,No Data,N,No Data,33.987327,-118.21604
19647336018865.00,622710,8890,Los Angeles Unified,Fred E. Lull Special Education Center,17551 Miranda Street,17551 Miranda St.,Encino,91316-1250,17551 Miranda Street,Encino,91316-1250,CA,7/1/1980,6/30/2017,N,No Data,No Data,54,Unified School District,9,Special Education Schools (Public),SPEC,Special Education School,ELEM,Elementary,P-5,5-Jan,N,N,N,No Data,34.174587,-118.5152
19647336058119.00,622710,3162,Los Angeles Unified,Horace Mann Junior High,7001 South Saint Andrews Place,7001 South Saint Andrews Pl.,Los Angeles,90047-1833,7001 South Saint Andrews Place,Los Angeles,90047-1833,CA,7/1/1980,6/30/2017,N,No Data,No Data,54,Unified School District,62,Intermediate/Middle Schools (Public),TRAD,Traditional,INTMIDJR,Intermediate/Middle/Junior High,8-Jun,8-Jun,N,N,N,No Data,33.976166,-118.31123
19647336060479.00,622710,7765,Los Angeles Unified,C. Morley Sellery Special Education Center,15805 South Budlong Avenue,15805 South Budlong Ave.,Gardena,90247-4303,15805 South Budlong Avenue,Gardena,90247-4303,CA,7/1/1980,6/30/2017,N,No Data,No Data,54,Unified School District,9,Special Education Schools (Public),SPEC,Special Education School,HS,High School,12-Sep,12,N,N,N,No Data,33.887751,-118.29594
19648086113799.00,625470,5903,Montebello Unified,Laguna Nueva,6360 South Garfield Avenue,6360 South Garfield Ave.,City Of Commerce,90040-3615,6360 South Garfield Avenue,City Of Commerce,90040-3615,CA,8/12/1996,6/30/2017,N,No Data,No Data,54,Unified School District,60,Elementary Schools (Public),TRAD,Traditional,HS,High School,K-8,12-Oct,N,N,N,No Data,33.974,-118.1464
19648656021281.00,629700,5904,Palos Verdes Peninsula Unified,Miraleste Elementary,6245 Via Canada,6245 Via Canada,Rancho Palos Verdes,90275-6540,6245 Via Canada,Rancho Palos Verdes,90275-6540,CA,9/5/1996,6/30/2017,N,No Data,No Data,54,Unified School District,60,Elementary Schools (Public),TRAD,Traditional,ELEM,Elementary,P,K,N,N,N,No Data,33.751354,-118.32405
19648656116164.00,629700,12459,Palos Verdes Peninsula Unified,Valmonte Elementary,3801 Via La Selva,3801 Via La Selva,Palos Verdes Estates,90274-1119,3801 Via La Selva,Palos Verdes Estates,90274-1119,CA,1/7/2002,6/30/2017,N,No Data,No Data,54,Unified School District,60,Elementary Schools (Public),TRAD,Traditional,ELEM,Elementary,P,K,N,N,N,No Data,33.801339,-118.36527
19648810128017.00,629940,13386,Pasadena Unified,Pasadena Rosebud Academy Middle,3544 North Canon Boulevard,3544 North Canon Blvd.,Altadena,91001-4008,3544 North Canon Boulevard,Altadena,91001-4008,CA,8/26/2013,6/30/2017,Y,1556,No Data,54,Unified School District,62,Intermediate/Middle Schools (Public),TRAD,Traditional,INTMIDJR,Intermediate/Middle/Junior High,8-Jul,8-Jul,N,N,N,No Data,34.204592,-118.13567
19651360121731.00,642510,12655,William S. Hart Union High,"Albert Einstein Academy for Letters, Arts and Sciences",28141 Kelly Johnson Parkway,28141 Kelly Johnson Pkwy.,Santa Clarita,91355-5003,28141 Kelly Johnson Parkway,Santa Clarita,91355-5003,CA,8/30/2010,6/30/2017,Y,1199,No Data,56,High School District,66,High Schools (Public),TRAD,Traditional,HS,High School,12-Jul,12-Jul,N,N,N,No Data,34.444904,-118.57677
19740961995026.00,600104,10917,Southeast ROP,Southeast ROP,12940 East Foster Road,12940 East Foster Rd.,Norwalk,90650-3332,12940 East Foster Road,Norwalk,90650-3332,CA,7/1/1980,6/30/2017,N,No Data,No Data,98,Regional Occupation Center/Program (ROC/P),98,ROC/ROP,No Data,No Data,HS,High School,12-Sep,No Data,No Data,No Data,N,No Data,33.909561,-118.05741
19734376023774.00,609620,988,Compton Unified,Lincoln Elementary,1667 East 118th Street,1667 East 118th St.,Los Angeles,90059-2515,1667 East 118th Street,Los Angeles,90059-2515,CA,7/1/1980,6/9/2017,N,No Data,No Data,54,Unified School District,60,Elementary Schools (Public),TRAD,Traditional,ELEM,Elementary,P-7,K-8,C,N,N,No Data,33.92599,-118.24441
19734376057574.00,609620,999,Compton Unified,Vanguard Learning Center,13305 South San Pedro Street,13305 South San Pedro St.,Los Angeles,90061-2254,13305 South San Pedro Street,Los Angeles,90061-2254,CA,7/1/1980,6/9/2017,N,No Data,No Data,54,Unified School District,62,Intermediate/Middle Schools (Public),TRAD,Traditional,INTMIDJR,Intermediate/Middle/Junior High,8-Jun,8-Jun,C,N,N,No Data,33.910884,-118.26969
19644366012520.00,610050,1097,Covina-Valley Unified,Lark Ellen Elementary,4555 North Lark Ellen Avenue,4555 North Lark Ellen Ave.,Covina,91722-3134,4555 North Lark Ellen Avenue,Covina,91722-3134,CA,7/1/1980,6/8/2017,N,No Data,No Data,54,Unified School District,60,Elementary Schools (Public),TRAD,Traditional,ELEM,Elementary,K-5,K-5,N,N,N,No Data,34.094244,-117.91659
19650940130005.00,642000,13834,West Covina Unified,Rio Verde Academy,2226 East Rio Verde Drive,2226 East Rio Verde Dr.,West Covina,91791-2067,2226 East Rio Verde Drive,West Covina,91791-2067,CA,8/11/2014,6/7/2017,N,No Data,No Data,54,Unified School District,9,Special Education Schools (Public),SPEC,Special Education School,ELEMHIGH,Elementary-High Combination,K-12,12-Jan,N,N,N,No Data,34.067012,-117.89778
19101991995257.00,691078,10231,Los Angeles County Office of Education,Alternative Opportunity Programs,12830 Columbia Way,12830 Columbia Way,Downey,90242-4720,9300 Imperial Highway,Downey,90242-2813,CA,7/1/1980,3/10/2017,N,No Data,No Data,0,County Office of Education (COE),13,Opportunity Schools,OPP,Opportunity School,HS,High School,K-12,12-Jul,N,N,N,No Data,33.91454,-118.1328
19642460115337.00,602820,12172,Antelope Valley Union High,Los Angeles County Online High,"2600 Foothill Boulevard, #301","2600 Foothill Blvd., #301",La Crescenta,91214-3588,"2600 Foothill Boulevard, #301",La Crescenta,91214-3588,CA,9/4/2007,2/1/2017,Y,915,No Data,56,High School District,66,High Schools (Public),TRAD,Traditional,HS,High School,12-Sep,12-Sep,F,N,Y,No Data,34.221013,-118.23539
19643520128900.00,607920,13678,Centinela Valley Union High,South Bay Academy Community Day,4409 Redondo Beach Boulevard,4409 Redondo Beach Blvd.,Lawndale,90260-3717,4409 Redondo Beach Boulevard,Lawndale,90260-3717,CA,1/6/2014,12/13/2016,N,No Data,No Data,56,High School District,69,District Community Day Schools,COMMDAY,Community Day School,HS,High School,12-Sep,12-Oct,N,N,N,No Data,33.874157,-118.35282
19734370133322.00,609620,13946,Compton Unified,Compton Middle Opportunity,"2300 West Caldwell Street, Building A","2300 West Caldwell St., Bldg. A",Compton,90220-4116,"2300 West Caldwell Street, Building A",Compton,90220-4116,CA,7/1/2015,12/9/2016,N,No Data,No Data,54,Unified School District,62,Intermediate/Middle Schools (Public),TRAD,Traditional,INTMIDJR,Intermediate/Middle/Junior High,8-Jun,8,C,N,N,No Data,33.88304,-118.24947
19649071996685.00,631320,10909,Pomona Unified,Pomona Community Day,605 North Park Avenue,605 North Park Ave.,Pomona,91766-3622,800 South Garey Avenue,Pomona,91767,CA,9/3/2002,8/30/2016,N,No Data,No Data,54,Unified School District,69,District Community Day Schools,COMMDAY,Community Day School,HS,High School,12-Jul,12-Sep,N,N,N,No Data,34.054065,-117.75443
19647256061352.00,622500,2722,Long Beach Unified,Hill Classical Middle,1100 Iroquois Avenue,1100 Iroquois Ave.,Long Beach,90815-4649,1100 Iroquois Avenue,Long Beach,90815-4649,CA,7/1/1980,7/1/2016,N,No Data,No Data,54,Unified School District,62,Intermediate/Middle Schools (Public),TRAD,Traditional,INTMIDJR,Intermediate/Middle/Junior High,8,8,N,N,N,No Data,33.780852,-118.10612
19101990124925.00,691078,12925,Los Angeles County Office of Education,Celerity Sirius Charter,310 East El Segundo Boulevard,310 East El Segundo Blvd.,Compton,90222-2315,2069 West Slauson Avenue,Los Angeles,90047,CA,7/1/2011,6/30/2016,Y,1353,No Data,0,County Office of Education (COE),60,Elementary Schools (Public),TRAD,Traditional,ELEM,Elementary,K-5,K-8,N,N,N,No Data,33.915978,-118.22263
19642611995760.00,602970,13327,Arcadia Unified,Arcadia Adult,150 South Third Avenue,150 South Third Ave.,Arcadia,91006-3703,150 South Third Avenue,Arcadia,91006-3703,CA,7/1/1993,6/30/2016,N,No Data,No Data,54,Unified School District,70,Adult Education Centers,TRAD,Traditional,A,Adult,Adult,No Data,N,No Data,N,No Data,34.138486,-118.02343
19647330112227.00,622710,11659,Los Angeles Unified,Lou Dantzler Preparatory Charter Middle,5029 South Vermont Avenue,5029 South Vermont Ave.,Los Angeles,90037-2907,"5120 West Goldleaf Circle, Suite350",Los Angeles,90056,CA,9/5/2007,6/30/2016,Y,813,No Data,54,Unified School District,62,Intermediate/Middle Schools (Public),TRAD,Traditional,INTMIDJR,Intermediate/Middle/Junior High,8-Jun,8-Jun,P,N,N,No Data,33.997337,-118.29152
19647330112862.00,622710,12035,Los Angeles Unified,Student Empowerment Academy,1319 East 41st Street,1319 East 41st St.,Los Angeles,90011-3301,1319 East 41st Street,Los Angeles,90011-3301,CA,9/5/2006,6/30/2016,Y,1582,No Data,54,Unified School District,66,High Schools (Public),TRAD,Traditional,HS,High School,12-Sep,12-Sep,N,N,N,No Data,34.009239,-118.25154
19647330117754.00,622710,12335,Los Angeles Unified,Los Angeles Teacher Preparatory Academy,1575 West Second Street,1575 West Second St.,Los Angeles,90026-5701,1575 West Second Street,Los Angeles,90026-5701,CA,9/3/2008,6/30/2016,N,No Data,No Data,54,Unified School District,66,High Schools (Public),TRAD,Traditional,HS,High School,12-Sep,12-Sep,N,N,N,No Data,34.061222,-118.26301
19647330125963.00,622710,13117,Los Angeles Unified,Leadership in Entertainment and Media Arts (LEMA),3501 North Broadway,3501 North Broadway,Los Angeles,90031-2856,3501 North Broadway,Los Angeles,90031-2856,CA,8/13/2012,6/30/2016,N,No Data,No Data,54,Unified School District,66,High Schools (Public),TRAD,Traditional,HS,High School,12-Sep,12-Sep,N,N,N,No Data,34.073986,-118.20295
19647330126102.00,622710,13067,Los Angeles Unified,The City,11625 West Pico Boulevard,11625 West Pico Blvd.,Los Angeles,90064-2908,1518 South Robertson Boulevard,Los Angeles,90035,CA,9/4/2012,6/30/2016,Y,1410,No Data,54,Unified School District,62,Intermediate/Middle Schools (Public),TRAD,Traditional,INTMIDJR,Intermediate/Middle/Junior High,8-Jun,8-Jun,P,N,N,No Data,34.032519,-118.44457
19647330132332.00,622710,13899,Los Angeles Unified,City High,4650 Olympic Boulevard,4650 Olympic Blvd.,Los Angeles,90019-1831,4650 Olympic Boulevard,Los Angeles,90019-1831,CA,8/17/2015,6/30/2016,Y,1710,Directly funded,54,Unified School District,66,High Schools (Public),TRAD,Traditional,HS,High School,12-Sep,9,N,N,N,No Data,34.055405,-118.33298
19647331930908.00,622710,13209,Los Angeles Unified,Belmont Community Adult,1575 West Second Street,1575 West Second St.,Los Angeles,90026-5701,1575 West Second Street,Los Angeles,90026-5701,CA,7/1/1980,6/30/2016,N,No Data,No Data,54,Unified School District,70,Adult Education Centers,TRAD,Traditional,A,Adult,Adult,No Data,N,No Data,N,No Data,34.061133,-118.26488
19647331930957.00,622710,13382,Los Angeles Unified,El Camino Real Community Adult,21213 Vanowen Street,21213 Vanowen St.,Canoga Park,91303,21213 Vanowen Street,Canoga Park,91303,CA,7/1/1980,6/30/2016,N,No Data,No Data,54,Unified School District,70,Adult Education Centers,TRAD,Traditional,A,Adult,Adult,No Data,N,No Data,N,No Data,34.194408,-118.59464
19647331931401.00,622710,13265,Los Angeles Unified,Kennedy-San Fernando Community,11254 Gothic Avenue,11254 Gothic Ave.,Granada Hills,91344-3709,11254 Gothic Avenue,Granada Hills,91344-3709,CA,7/1/1980,6/30/2016,N,No Data,No Data,54,Unified School District,70,Adult Education Centers,TRAD,Traditional,A,Adult,Adult,No Data,N,No Data,N,No Data,34.275211,-118.48806
19647331931591.00,622710,13605,Los Angeles Unified,Wilson-Lincoln Community Adult,4500 Multnomah Street,4500 Multnomah St.,Los Angeles,90032-3703,4500 Multnomah Street,Los Angeles,90032-3703,CA,7/1/1980,6/30/2016,N,No Data,No Data,54,Unified School District,70,Adult Education Centers,TRAD,Traditional,A,Adult,Adult,No Data,N,No Data,N,No Data,34.069677,-118.18634
19647331932466.00,622710,13363,Los Angeles Unified,Pacoima Skills Center,13545 Van Nuys Boulevard,13545 Van Nuys Blvd.,Pacoima,91331-3000,13545 Van Nuys Boulevard,Pacoima,91331-3000,CA,7/1/1980,6/30/2016,N,No Data,No Data,54,Unified School District,70,Adult Education Centers,TRAD,Traditional,A,Adult,Adult,No Data,N,No Data,N,No Data,34.261924,-118.42852
19647331932508.00,622710,13530,Los Angeles Unified,Metropolitan Skill Center,2801 West Sixth Street,2801 West Sixth St.,Los Angeles,90057-3113,2801 West Sixth Street,Los Angeles,90057-3113,CA,7/1/1980,6/30/2016,N,No Data,No Data,54,Unified School District,70,Adult Education Centers,TRAD,Traditional,A,Adult,Adult,No Data,N,No Data,N,No Data,34.063599,-118.28343
19647331932904.00,622710,13574,Los Angeles Unified,Westside Community Adult,7850 Melrose Avenue,7850 Melrose Ave.,Los Angeles,90046-7210,7850 Melrose Avenue,Los Angeles,90046-7210,CA,7/1/1980,6/30/2016,N,No Data,No Data,54,Unified School District,70,Adult Education Centers,TRAD,Traditional,A,Adult,Adult,No Data,N,No Data,N,No Data,34.083401,-118.35973
19647331933027.00,622710,13649,Los Angeles Unified,Benjamin Franklin Community,820 North Avenue 54,820 North Avenue 54,Los Angeles,90042-2428,820 North Avenue 54,Los Angeles,90042-2428,CA,7/1/1980,6/30/2016,N,No Data,No Data,54,Unified School District,70,Adult Education Centers,TRAD,Traditional,A,Adult,Adult,No Data,N,No Data,N,No Data,34.115704,-118.19881
19647331933092.00,622710,13313,Los Angeles Unified,John C. Fremont Community Adult,7676 South San Pedro Street,7676 South San Pedro St.,Los Angeles,90003-2348,7676 South San Pedro Street,Los Angeles,90003-2348,CA,7/1/1980,6/30/2016,N,No Data,No Data,54,Unified School District,70,Adult Education Centers,TRAD,Traditional,HS,High School,Adult,11,N,No Data,N,No Data,33.969845,-118.26914
19647331933290.00,622710,13515,Los Angeles Unified,George Kiriyama Community Adult,18120 South Normandie Avenue,18120 South Normandie Ave.,Gardena,90248-3316,18120 South Normandie Avenue,Gardena,90248-3316,CA,7/1/1980,6/30/2016,N,No Data,No Data,54,Unified School District,70,Adult Education Centers,TRAD,Traditional,A,Adult,Adult,No Data,N,No Data,N,No Data,33.866944,-118.29892
19647331933365.00,622710,13424,Los Angeles Unified,James A. Garfield Community,4343 New York Street,4343 New York St.,Los Angeles,90022-3209,4343 New York Street,Los Angeles,90022-3209,CA,7/1/1980,6/30/2016,N,No Data,No Data,54,Unified School District,70,Adult Education Centers,TRAD,Traditional,A,Adult,Adult,No Data,N,No Data,N,No Data,34.039905,-118.17215
19647331934017.00,622710,13432,Los Angeles Unified,Hollywood Community Adult,1521 North Highland Avenue,1521 North Highland Ave.,Los Angeles,90028-7001,1521 North Highland Avenue,Los Angeles,90028-7001,CA,7/1/1980,6/30/2016,N,No Data,No Data,54,Unified School District,70,Adult Education Centers,TRAD,Traditional,A,Adult,Adult,No Data,N,No Data,N,No Data,34.099182,-118.34006
19647331934355.00,622710,13559,Los Angeles Unified,Jefferson Community Adult,1319 East 41st Street,1319 East 41st St.,Los Angeles,90011-3301,1319 East 41st Street,Los Angeles,90011-3301,CA,7/1/1999,6/30/2016,N,No Data,No Data,54,Unified School District,70,Adult Education Centers,TRAD,Traditional,A,Adult,Adult,No Data,N,No Data,N,No Data,34.009568,-118.25122
19647331935303.00,622710,13662,Los Angeles Unified,Los Angeles Community Adult,4650 West Olympic Boulevard,4650 West Olympic Blvd.,Los Angeles,90019-1831,4650 West Olympic Boulevard,Los Angeles,90019-1831,CA,7/1/1980,6/30/2016,N,No Data,No Data,54,Unified School District,70,Adult Education Centers,TRAD,Traditional,A,Adult,Adult,No Data,N,No Data,N,No Data,34.055405,-118.33298
19647331935493.00,622710,13577,Los Angeles Unified,Manual Arts Community Adult,4131 South Vermont Avenue,4131 South Vermont Ave.,Los Angeles,90037-1918,4131 South Vermont Avenue,Los Angeles,90037-1918,CA,7/1/1980,6/30/2016,N,No Data,No Data,54,Unified School District,70,Adult Education Centers,TRAD,Traditional,A,Adult,Adult,No Data,N,No Data,N,No Data,34.00877,-118.29284
19647331936335.00,622710,13253,Los Angeles Unified,North Hollywood Poly Community Adult,12431 Roscoe Boulevard,12431 Roscoe Blvd.,Sun Valley,91352-3723,12431 Roscoe Boulevard,Sun Valley,91352-3723,CA,7/1/1980,6/30/2016,N,No Data,No Data,54,Unified School District,70,Adult Education Centers,TRAD,Traditional,A,Adult,Adult,No Data,N,No Data,N,No Data,34.222799,-118.40416
19647331937200.00,622710,13372,Los Angeles Unified,Reseda Community Adult,18230 Kittridge Street,18230 Kittridge St.,Reseda,91335-6121,18230 Kittridge Street,Reseda,91335-6121,CA,7/1/1980,6/30/2016,N,No Data,No Data,54,Unified School District,70,Adult Education Centers,TRAD,Traditional,A,Adult,Adult,No Data,N,No Data,N,No Data,34.188617,-118.52935
19647331937408.00,622710,13462,Los Angeles Unified,Roosevelt Community Adult,456 South Matthews Street,456 South Matthews St.,Los Angeles,90033-4326,456 South Matthews Street,Los Angeles,90033-4326,CA,7/1/1980,6/30/2016,N,No Data,No Data,54,Unified School District,70,Adult Education Centers,TRAD,Traditional,A,Adult,Adult,No Data,N,No Data,N,No Data,34.037504,-118.21196
19647331937812.00,622710,13362,Los Angeles Unified,Harbor Community Adult,950 West Santa Cruz Street,950 West Santa Cruz St.,San Pedro,90731-3925,950 West Santa Cruz Street,San Pedro,90731-3925,CA,7/1/1980,6/30/2016,N,No Data,No Data,54,Unified School District,70,Adult Education Centers,TRAD,Traditional,A,Adult,Adult,No Data,N,No Data,N,No Data,33.744672,-118.29813
19647331938281.00,622710,13232,Los Angeles Unified,South Gate Community Adult,2525 Firestone Boulevard,2525 Firestone Blvd.,South Gate,90280-2937,2525 Firestone Boulevard,South Gate,90280-2937,CA,7/1/1980,6/30/2016,N,No Data,No Data,54,Unified School District,70,Adult Education Centers,TRAD,Traditional,A,Adult,Adult,No Data,N,No Data,N,No Data,33.957674,-118.22689
19647331938943.00,622710,13644,Los Angeles Unified,Van Nuys Community Adult,6535 Cedros Avenue,6535 Cedros Ave.,Van Nuys,91411-1506,6535 Cedros Avenue,Van Nuys,91411-1506,CA,7/1/1980,6/30/2016,N,No Data,No Data,54,Unified School District,70,Adult Education Centers,TRAD,Traditional,A,Adult,Adult,No Data,N,No Data,N,No Data,34.189234,-118.45516
19647331939024.00,622710,13484,Los Angeles Unified,Venice Community Adult,13000 Venice Boulevard,13000 Venice Blvd.,Los Angeles,90066-3512,13000 Venice Boulevard,Los Angeles,90066-3512,CA,7/1/1980,6/30/2016,N,No Data,No Data,54,Unified School District,70,Adult Education Centers,TRAD,Traditional,A,Adult,Adult,No Data,N,No Data,N,No Data,33.997058,-118.44575
19647331939453.00,622710,13535,Los Angeles Unified,Westchester-Emerson Community Adult,8810 Emerson Avenue,8810 Emerson Ave.,Los Angeles,90045-2322,8810 Emerson Avenue,Los Angeles,90045-2322,CA,7/1/1980,6/30/2016,N,No Data,No Data,54,Unified School District,70,Adult Education Centers,TRAD,Traditional,A,Adult,Adult,No Data,N,No Data,N,No Data,33.956471,-118.40407
19647331995489.00,622710,9570,Los Angeles Unified,Los Angeles Unified Alternative Education,"333 South Beaudry Avenue, Floor 18","333 South Beaudry Ave., Fl. 18",Los Angeles,90017-5108,"333 South Beaudry Avenue, Floor 18",Los Angeles,90017-5108,CA,7/1/1980,6/30/2016,N,No Data,No Data,54,Unified School District,63,Alternative Schools of Choice,ALTSOC,Alternative School of Choice,HS,High School,12-Jul,12-Sep,N,N,N,No Data,34.056109,-118.25698
19647336060487.00,622710,7752,Los Angeles Unified,Frances Blend Special Education Center,5210 Clinton Street,5210 Clinton St.,Los Angeles,90004-1531,5210 Clinton Street,Los Angeles,90004-1531,CA,7/1/1980,6/30/2016,N,No Data,No Data,54,Unified School District,9,Special Education Schools (Public),SPEC,Special Education School,ELEM,Elementary,P-6,K-8,N,N,N,No Data,34.081606,-118.31606
19650940125393.00,642000,13027,West Covina Unified,Insight @ Los Angeles,50 Moreland Road,50 Moreland Rd.,Simi Valley,93065-1659,50 Moreland Road,Simi Valley,93065-1659,CA,9/26/2011,6/30/2016,Y,1370,No Data,54,Unified School District,66,High Schools (Public),TRAD,Traditional,HS,High School,12-Sep,12-Sep,F,N,N,No Data,34.275868,-118.79798
19734371995703.00,609620,2223,Compton Unified,Harriet Tubman High,12501 North Wilmington,12501 North Wilmington,Compton,90220,12501 North Wilmington,Compton,90220,CA,9/8/1992,6/30/2016,N,No Data,No Data,54,Unified School District,68,Continuation High Schools,CON,Continuation School,HS,High School,12-Sep,12,P,N,N,No Data,33.919243,-118.23962
19753090130773.00,600001,13840,Acton-Agua Dulce Unified,Academy of Arts and Sciences: Los Angeles (K-8),17500 Burbank Boulevard,17500 Burbank Blvd.,Encino,91361-1718,900 A Hampshire RoadSte A,Westlake Village,91361,CA,7/1/2014,6/30/2016,Y,1652,No Data,54,Unified School District,60,Elementary Schools (Public),TRAD,Traditional,ELEM,Elementary,K-8,K-8,F,N,Y,No Data,34.172041,-118.51472
19768690131318.00,601428,13813,Wiseburn Unified,Malaga Cove School - Success Learning Center,300 Paseo Del Mar,300 Paseo Del Mar,Palos Verdes Estates,90274-1272,300 Paseo Del Mar,Palos Verdes Estates,90274-1272,CA,8/25/2014,6/30/2016,N,No Data,No Data,54,Unified School District,9,Special Education Schools (Public),SPEC,Special Education School,ELEMHIGH,Elementary-High Combination,K-12,No Data,N,N,N,No Data,33.801682,-118.39645
19648730120378.00,629850,12532,Paramount Unified,Paramount Alternative Education Center,3701 Michelson Street,3701 Michelson St.,Lakewood,90712-1402,3701 Michelson Street,Lakewood,90712-1402,CA,8/26/2009,1/22/2016,N,No Data,No Data,54,Unified School District,63,Alternative Schools of Choice,ALTSOC,Alternative School of Choice,HS,High School,12-Jun,12-Nov,P,N,N,No Data,33.856974,-118.14858
19768850130799.00,No Data,12271,SBE - Anahuacalmecac International University Preparatory of North America,Anahuacalmecac International University Preparatory of North America,4736 Huntington Drive South,4736 Huntington Dr. South,Los Angeles,90032-1942,4736 Huntington Drive South,Los Angeles,90032-1942,CA,8/13/2014,9/10/2015,Y,1685,Directly funded,2,State Board of Education,67,High Schools In 1 School Dist. (Public),TRAD,Traditional,HS,High School,12-Sep,12-Sep,N,N,N,No Data,34.085085,-118.18154
19753090129841.00,600001,13785,Acton-Agua Dulce Unified,"Albert Einstein Academy for Letters, Arts & Sciences - Odyssey",8844 Burton Way,8844 Burton Way,Beverly Hills,90211-1644,8844 Burton Way,Beverly Hills,90211-1644,CA,8/19/2015,8/19/2015,Y,1596,Directly funded,54,Unified School District,66,High Schools (Public),TRAD,Traditional,HS,High School,12-Jul,No Data,N,N,N,No Data,34.071847,-118.38524
19643370115436.00,606450,12070,Burbank Unified,Off Campus Learning Center,3811 Allan Avenue,3811 Allan Ave.,Burbank,91505-1809,3811 Allan Avenue,Burbank,91505-1809,CA,8/27/2007,6/30/2015,N,No Data,No Data,54,Unified School District,9,Special Education Schools (Public),SPEC,Special Education School,ELEM,Elementary,12-Jul,3,N,N,N,No Data,34.1776,-118.3557
19647256015218.00,622500,2705,Long Beach Unified,Burroughs Elementary,1260 East 33rd Street,1260 East 33rd St.,Signal Hill,90755-5229,1260 East 33rd Street,Signal Hill,90755-5229,CA,7/1/1980,6/30/2015,N,No Data,No Data,54,Unified School District,60,Elementary Schools (Public),TRAD,Traditional,ELEM,Elementary,K-5,K-5,N,N,N,No Data,33.817052,-118.17563
19647256107015.00,622500,9149,Long Beach Unified,Two Harbors Elementary,1 School House Road,1 School House Rd.,Two Harbors,90704-0557,PO Box 557,Avalon,90704-0557,CA,7/1/1980,6/30/2015,N,No Data,No Data,54,Unified School District,60,Elementary Schools (Public),TRAD,Traditional,ELEM,Elementary,K-5,3-Jan,N,N,N,No Data,33.44005,-118.49843
19647256118269.00,622500,8507,Long Beach Unified,New City,1637 Long Beach Boulevard,1637 Long Beach Blvd.,Long Beach,90813-1929,1637 Long Beach Boulevard,Long Beach,90813-1929,CA,8/1/2000,6/30/2015,Y,291,No Data,54,Unified School District,60,Elementary Schools (Public),TRAD,Traditional,ELEM,Elementary,K-8,K-8,N,N,N,No Data,33.788129,-118.1899
19647330109553.00,622710,10890,Los Angeles Unified,PUC CA Academy for Liberal Studies Early College High,7350 North Figueroa Street,7350 North Figueroa St.,Los Angeles,90041-2547,7350 North Figueroa Street,Los Angeles,90041-2547,CA,9/7/2005,6/30/2015,Y,710,No Data,54,Unified School District,66,High Schools (Public),TRAD,Traditional,HS,High School,12-Sep,12-Sep,N,N,N,No Data,34.137422,-118.18764
19647330112193.00,622710,11656,Los Angeles Unified,PUC Triumph Charter Academy,13361 Glenoaks Boulevard,13361 Glenoaks Blvd.,Sylmar,91342-2110,1405 N. San Fernando Boulevard Suite 303,Burbank,91504,CA,9/24/2007,6/30/2015,Y,797,Directly funded,54,Unified School District,62,Intermediate/Middle Schools (Public),TRAD,Traditional,INTMIDJR,Intermediate/Middle/Junior High,8-Jun,8-Jun,N,N,N,No Data,34.31419,-118.45976
19647330112433.00,622710,11664,Los Angeles Unified,Frederick Douglass Academy Middle,3200 West Adams Boulevard,3200 West Adams Blvd.,Los Angeles,90018-1832,"5120 West Goldleaf Circle, Suite 350",Los Angeles,90056,CA,9/6/2006,6/30/2015,Y,814,No Data,54,Unified School District,62,Intermediate/Middle Schools (Public),TRAD,Traditional,INTMIDJR,Intermediate/Middle/Junior High,8-Jun,8-Jun,N,N,N,No Data,34.03263,-118.319
19647330112557.00,622710,11667,Los Angeles Unified,Frederick Douglass Academy High,3200 West Adams Boulevard,3200 West Adams Blvd.,Los Angeles,90018-1832,"5120 West Goldleaf Circle, Suite 350",Los Angeles,90056,CA,9/6/2006,6/30/2015,Y,833,No Data,54,Unified School District,66,High Schools (Public),TRAD,Traditional,HS,High School,12-Sep,12-Sep,P,N,N,No Data,34.03263,-118.319
19647330117960.00,622710,12205,Los Angeles Unified,Aspire Huntington Park Charter,6005 Stafford Avenue,6005 Stafford Ave.,Huntington Park,90255-3006,"1001 22nd Avenue, Suite 100",Oakland,94606,CA,8/13/2008,6/30/2015,Y,1035,No Data,54,Unified School District,60,Elementary Schools (Public),TRAD,Traditional,ELEM,Elementary,K-6,K-5,N,N,N,No Data,33.987036,-118.22145
19647330120055.00,622710,12476,Los Angeles Unified,PUC Nueva Esperanza Charter Academy,1218 North Fourth Street,1218 North Fourth St.,San Fernando,91340-2314,1405 N. San Fernando Boulevard Suite 303,Burbank,91504,CA,9/9/2009,6/30/2015,Y,1092,Directly funded,54,Unified School District,62,Intermediate/Middle Schools (Public),TRAD,Traditional,INTMIDJR,Intermediate/Middle/Junior High,8-Jun,8-Jun,N,N,N,No Data,34.287618,-118.43854
19647330121277.00,622710,12573,Los Angeles Unified,Alliance College-Ready Middle Academy 7,2941 West 70th Street,2941 West 70th St.,Los Angeles,90043-4420,"601 South Figueroa Street, 4th Floor",Los Angeles,90017,CA,8/30/2010,6/30/2015,Y,1160,No Data,54,Unified School District,62,Intermediate/Middle Schools (Public),TRAD,Traditional,INTMIDJR,Intermediate/Middle/Junior High,8-Jun,8-Jun,N,N,Y,No Data,33.976373,-118.32583
19647330122598.00,622710,12812,Los Angeles Unified,PUC Triumph Charter High,9171 Telfair Avenue,9171 Telfair Ave.,Sun Valley,91352-1844,9171 Telfair Avenue,Sun Valley,91352-1844,CA,8/30/2010,6/30/2015,Y,1233,No Data,54,Unified School District,66,High Schools (Public),TRAD,Traditional,HS,High School,12-Sep,12-Sep,N,N,N,No Data,34.234825,-118.39801
19647330122762.00,622710,12699,Los Angeles Unified,Los Angeles Big Picture High,"700 Wilshire Boulevard, Suite 400","700 Wilshire Blvd., Ste. 400",Los Angeles,90017-3837,"700 Wilshire Boulevard, Suite 400",Los Angeles,90017-3837,CA,9/13/2010,6/30/2015,Y,1239,No Data,54,Unified School District,66,High Schools (Public),TRAD,Traditional,HS,High School,12-Sep,12-Sep,P,N,N,No Data,34.048788,-118.2574
19647336118194.00,622710,8511,Los Angeles Unified,PUC CALS Charter Middle,7350 North Figueroa Street,7350 North Figueroa St.,Los Angeles,90041-2547,1405 N. San Fernando Boulevard Suite 303,Burbank,91504,CA,9/13/2000,6/30/2015,Y,331,Directly funded,54,Unified School District,62,Intermediate/Middle Schools (Public),TRAD,Traditional,INTMIDJR,Intermediate/Middle/Junior High,8-Jun,8-Jun,N,N,N,No Data,34.137323,-118.18784
19647336119929.00,622710,10523,Los Angeles Unified,Xinaxcalmecac Academia Semillas del Pueblo,4736 Huntington Drive,4736 Huntington Dr.,Los Angeles,90032-1942,4736 Huntington Drive,Los Angeles,90032-1942,CA,9/3/2002,6/30/2015,Y,447,No Data,54,Unified School District,60,Elementary Schools (Public),TRAD,Traditional,ELEM,Elementary,K-12,K-8,N,N,N,No Data,34.085252,-118.18123
19648576104145.00,629580,8172,Palmdale Elementary,Juniper Intermediate,39066 Palm Tree Way,39066 Palm Tree Way,Palmdale,93551-3921,39066 Palm Tree Way,Palmdale,93551-3921,CA,7/1/1980,6/30/2015,N,No Data,No Data,52,Elementary School District,62,Intermediate/Middle Schools (Public),TRAD,Traditional,INTMIDJR,Intermediate/Middle/Junior High,8-Jul,8,P,N,N,No Data,34.593277,-118.15437
19753090128603.00,600001,13717,Acton-Agua Dulce Unified,Albert Einstein Academy Elementary,25300 Rye Canyon,25300 Rye Canyon,Santa Clarita,91355-1209,"25876 The Old Road, #325",Stevenson Ranch,91381,CA,9/9/2013,6/30/2015,Y,1595,No Data,54,Unified School District,60,Elementary Schools (Public),TRAD,Traditional,ELEMHIGH,Elementary-High Combination,K-6,K-12,P,N,N,No Data,34.437502,-118.57686
19753090130898.00,600001,13835,Acton-Agua Dulce Unified,Valley Prep 9-12,14701 Friar Street,14701 Friar St.,Van Nuys,91411-2207,900 A Hampshire RoadSte A,Westlake Village,91361,CA,7/1/2014,6/30/2015,Y,1672,No Data,54,Unified School District,66,High Schools (Public),TRAD,Traditional,HS,High School,12-Sep,11-Sep,P,N,Y,No Data,34.186082,-118.45349
19753090130914.00,600001,13817,Acton-Agua Dulce Unified,Valley Prep K-5,11261 Glenoaks Boulevard,11261 Glenoaks Blvd.,Pacoima,91331,900 A Hampshire RoadSte A,Westlake Village,91361,CA,7/1/2014,6/30/2015,Y,1670,No Data,54,Unified School District,60,Elementary Schools (Public),TRAD,Traditional,ELEM,Elementary,K-5,K-5,P,N,Y,No Data,34.274999,-118.4131
19753090130922.00,600001,13827,Acton-Agua Dulce Unified,Valley Prep 6-8,11251 Glenoaks Boulevard,11251 Glenoaks Blvd.,Pacoima,91331-1621,900 A Hampshire RoadSte A,Westlake Village,91361,CA,7/1/2014,6/30/2015,Y,1671,No Data,54,Unified School District,62,Intermediate/Middle Schools (Public),TRAD,Traditional,INTMIDJR,Intermediate/Middle/Junior High,8-Jun,8-Jun,P,N,Y,No Data,34.274365,-118.41317
19753096022743.00,600001,6294,Acton-Agua Dulce Unified,Agua Dulce Elementary,11311 West Frascati Street,11311 West Frascati St.,Agua Dulce,91390-4840,11311 West Frascati Street,Agua Dulce,91390-4840,CA,7/1/1980,6/30/2015,N,No Data,No Data,54,Unified School District,60,Elementary Schools (Public),TRAD,Traditional,ELEM,Elementary,K-5,K-5,N,N,N,No Data,34.487306,-118.33494
19767370102020.00,601407,11336,SBE - Today's Fresh Start Charter,Today's Fresh Start Charter,4514 Crenshaw Boulevard,4514 Crenshaw Blvd.,Los Angeles,90043-1221,4514 Crenshaw Boulevard,Los Angeles,90043-1221,CA,9/9/2003,6/30/2015,Y,597,No Data,2,State Board of Education,61,Elemen Schools In 1 School Dist. (Public),TRAD,Traditional,ELEMHIGH,Elementary-High Combination,K-8,K-11,N,N,N,No Data,34.002174,-118.33095
19734520129031.00,633750,13733,Rowland Unified,Rowland Heights Charter Academy,1127 Otterbein Avenue,1127 Otterbein Ave.,Rowland Heights,91748-1411,1127 Otterbein Avenue,Rowland Heights,91748-1411,CA,9/3/2013,6/9/2015,Y,1611,Directly funded,54,Unified School District,60,Elementary Schools (Public),TRAD,Traditional,ELEM,Elementary,K-8,K-8,N,N,N,No Data,33.994758,-117.88407
19647900120451.00,625320,12488,Monrovia Unified,Quest Academy Community Day,1831 Santa Fe Place,1831 Santa Fe Pl.,Monrovia,91016-4841,1831 Santa Fe Place,Monrovia,91016-4841,CA,9/1/2009,6/8/2015,N,No Data,No Data,54,Unified School District,69,District Community Day Schools,COMMDAY,Community Day School,HS,High School,12-Jul,12-Aug,N,N,N,No Data,34.131539,-118.00166
19101990112730.00,691078,11974,Los Angeles County Office of Education,Wisdom Academy for Young Scientists,706 East Manchester Avenue,706 East Manchester Ave.,Los Angeles,90001-3633,706 East Manchester Avenue,Los Angeles,90001-3633,CA,9/12/2006,5/29/2015,Y,839,Directly funded,0,County Office of Education (COE),60,Elementary Schools (Public),TRAD,Traditional,ELEM,Elementary,K-5,K-5,N,N,N,No Data,33.95994,-118.26269
19648810127126.00,629940,13093,Pasadena Unified,Celerity Exa Charter,136 West Peoria Street,136 West Peoria St.,Pasadena,91103,2069 West Slauson Avenue,Los Angeles,90047,CA,7/1/2012,9/2/2014,Y,1461,No Data,54,Unified School District,60,Elementary Schools (Public),TRAD,Traditional,ELEM,Elementary,K-5,K-5,No Data,No Data,N,No Data,34.154997,-118.15295
19642790122424.00,603600,13521,Azusa Unified,Longfellow,245 West Tenth Street,245 West Tenth St.,Azusa,91702-2310,245 West Tenth Street,Azusa,91702-2310,CA,8/31/2010,8/18/2014,N,No Data,No Data,54,Unified School District,8,Preschool,SPEC,Special Education School,ELEM,Elementary,P-K,No Data,No Data,No Data,N,No Data,34.13905,-117.90936
19646910120337.00,621210,12490,Lawndale Elementary,Kit Carson Elementary,3530 West 147th Street,3530 West 147th St.,Hawthorne,90250,3530 West 147th Street,Hawthorne,90250,CA,9/9/2009,7/1/2014,N,No Data,No Data,52,Elementary School District,60,Elementary Schools (Public),TRAD,Traditional,ELEM,Elementary,K-2,K-2,No Data,No Data,N,No Data,33.898255,-118.33365
19101990109918.00,691078,10894,Los Angeles County Office of Education,Opportunities Unlimited Charter High,5100 South Broadway Avenue,5100 South Broadway Ave.,Los Angeles,90037,5100 South Broadway Avenue,Los Angeles,90037,CA,9/6/2005,6/30/2014,Y,737,No Data,0,County Office of Education (COE),66,High Schools (Public),TRAD,Traditional,HS,High School,12-Sep,12-Aug,No Data,No Data,N,No Data,33.996155,-118.27794
19643291995380.00,605610,13352,Bonita Unified,Bonita District Adult,115 West Allen Avenue,115 West Allen Ave.,San Dimas,91773-1437,115 West Allen Avenue,San Dimas,91773-1437,CA,7/1/1980,6/30/2014,N,No Data,No Data,54,Unified School District,70,Adult Education Centers,TRAD,Traditional,A,Adult,Adult,No Data,C,No Data,N,No Data,34.11785,-117.80779
19646000120543.00,617040,12461,Hermosa Beach City Elementary,Opportunities for Learning - Hermosa Beach,13613 Hawthorne Avenue,13613 Hawthorne Ave.,Hawthorne,90250,13613 Hawthorne Avenue,Hawthorne,90250,CA,9/25/2009,6/30/2014,Y,1130,No Data,52,Elementary School District,66,High Schools (Public),TRAD,Traditional,HS,High School,12-Jul,12-Jul,No Data,N,Y,No Data,33.90848,-118.35249
19646000120550.00,617040,12508,Hermosa Beach City Elementary,"Options for Youth-Hermosa Beach, Inc.",6628 Van Nuys Boulevard,6628 Van Nuys Blvd.,Van Nuys,91405,6628 Van Nuys Boulevard,Van Nuys,91405,CA,9/25/2009,6/30/2014,Y,1131,No Data,52,Elementary School District,66,High Schools (Public),TRAD,Traditional,HS,High School,12-Jul,12-Jul,No Data,N,Y,No Data,34.191519,-118.44824
19647330117739.00,622710,12232,Los Angeles Unified,Civitas School of Leadership,1200 West Colton Street,1200 West Colton St.,Los Angeles,90026,1200 West Colton Street,Los Angeles,90026,CA,9/3/2008,6/30/2014,N,No Data,No Data,54,Unified School District,66,High Schools (Public),TRAD,Traditional,HS,High School,12-Sep,12-Sep,No Data,No Data,N,No Data,34.061984,-118.25456
19647330124438.00,622710,12867,Los Angeles Unified,ARTLAB at Sonia Sotomayor Learning Academics,2050 San Fernando Road,2050 San Fernando Rd.,Los Angeles,90065-1267,2050 San Fernando Road,Los Angeles,90065-1267,CA,9/6/2011,6/30/2014,N,No Data,No Data,54,Unified School District,66,High Schools (Public),TRAD,Traditional,HS,High School,12-Sep,12-Sep,No Data,No Data,N,No Data,34.290459,-118.44949
19647330124461.00,622710,12934,Los Angeles Unified,Social Justice Schools: Global Issues Academy at Dr. Maya Angelou Community High,300 East 53rd Street,300 East 53rd St.,Los Angeles,90011-4522,300 East 53rd Street,Los Angeles,90011-4522,CA,9/7/2011,6/30/2014,N,No Data,No Data,54,Unified School District,66,High Schools (Public),TRAD,Traditional,HS,High School,12-Sep,12-Sep,No Data,No Data,N,No Data,33.99422,-118.2701
19647330127951.00,622710,13390,Los Angeles Unified,Urban Village Middle,5753 Rodeo Road,5753 Rodeo Rd.,Los Angeles,90016,5753 Rodeo Road,Los Angeles,90016,CA,8/13/2013,6/30/2014,Y,1534,Directly funded,54,Unified School District,62,Intermediate/Middle Schools (Public),TRAD,Traditional,INTMIDJR,Intermediate/Middle/Junior High,8-Jun,8-Jun,No Data,No Data,N,No Data,34.02233,-118.37128
19651361996511.00,642510,10915,William S. Hart Union High,Transitional Learning Center Charter,23007 West Dalbey Drive,23007 West Dalbey Dr.,Santa Clarita,91355,21515 Centre Pointe Parkway,Santa Clarita,91350,CA,8/27/2001,6/30/2014,Y,397,No Data,56,High School District,66,High Schools (Public),TRAD,Traditional,HS,High School,12-Sep,12,No Data,No Data,N,No Data,34.387682,-118.53953
19649076113500.00,631320,5910,Pomona Unified,Pueblo,"1460 East Holt Avenue, Suite 100","1460 East Holt Ave., Ste. 100",Pomona,91768,800 South Garey Avenue,Pomona,91767-5851,CA,7/1/1996,6/4/2014,N,No Data,No Data,54,Unified School District,62,Intermediate/Middle Schools (Public),TRAD,Traditional,INTMIDJR,Intermediate/Middle/Junior High,7,8,No Data,No Data,N,No Data,34.063051,-117.72073
19651020120899.00,642120,12481,Westside Union Elementary,Westside Academy,5606 West Avenue L-8,5606 West Ave. L-8,Lancaster,93536,5606 West Avenue L-8,Lancaster,93536,CA,8/9/2010,6/4/2014,N,No Data,No Data,52,Elementary School District,69,District Community Day Schools,COMMDAY,Community Day School,INTMIDJR,Intermediate/Middle/Junior High,K-8,8-Jun,N,N,Y,No Data,34.652885,-118.23002
19647256015655.00,622500,7113,Long Beach Unified,Tucker Elementary,2221 Argonne Avenue,2221 Argonne Ave.,Long Beach,90815-2527,2221 Argonne Avenue,Long Beach,90815-2527,CA,10/8/1996,7/1/2013,N,No Data,No Data,54,Unified School District,60,Elementary Schools (Public),TRAD,Traditional,ELEM,Elementary,K-5,1,No Data,No Data,N,No Data,33.797035,-118.13623
19644850123513.00,611850,13217,East Whittier City Elementary,Mar Vista Early Childhood Center,8036 Ocean View Avenue,8036 Ocean View Ave.,Whittier,90602,8036 Ocean View Avenue,Whittier,90602,CA,9/7/2010,6/30/2013,N,No Data,No Data,52,Elementary School District,9,Special Education Schools (Public),SPEC,Special Education School,ELEM,Elementary,P-K,K,No Data,No Data,N,No Data,33.966698,-118.01082
19646340120873.00,618390,12504,Inglewood Unified,Inglewood Academy,401 South Inglewood Avenue,401 South Inglewood Ave.,Inglewood,90301,401 South Inglewood Avenue,Inglewood,90301,CA,9/6/2011,6/30/2013,N,No Data,No Data,54,Unified School District,69,District Community Day Schools,COMMDAY,Community Day School,ELEM,Elementary,6-Jan,No Data,No Data,No Data,N,No Data,33.958761,-118.36175
19646346014468.00,618390,2250,Inglewood Unified,Freeman (Daniel) Elementary,2602 West 79th Street,2602 West 79th St.,Inglewood,90305-1032,2602 West 79th Street,Inglewood,90305-1032,CA,7/1/1980,6/30/2013,N,No Data,No Data,54,Unified School District,60,Elementary Schools (Public),TRAD,Traditional,ELEM,Elementary,K-6,K-6,No Data,No Data,N,No Data,33.9672,-118.32218
19647250101733.00,622500,11303,Long Beach Unified,Focus Community Day (Elementary),2221 Argonne Avenue c/o CDS-Elementary Administrative Office,2221 Argonne Ave. c/o CDS-Elementary Administrative Office,Long Beach,90815-2527,2221 Argonne Avenue c/o CDS-Elementary Administrative Office,Long Beach,90815-2527,CA,9/2/2003,6/30/2013,N,No Data,No Data,54,Unified School District,69,District Community Day Schools,COMMDAY,Community Day School,ELEM,Elementary,K-6,6-Mar,No Data,No Data,N,No Data,33.797035,-118.13623
19647256015523.00,622500,2746,Long Beach Unified,Monroe K-8,4400 Ladoga Avenue,4400 Ladoga Ave.,Lakewood,90713-2749,4400 Ladoga Avenue,Lakewood,90713-2749,CA,7/1/1980,6/30/2013,N,No Data,No Data,54,Unified School District,60,Elementary Schools (Public),TRAD,Traditional,ELEM,Elementary,K-8,K-8,No Data,No Data,N,No Data,33.837417,-118.10334
19647330100768.00,622710,11353,Los Angeles Unified,CLAS Affirmation,4400 Coliseum Street,4400 Coliseum St.,Los Angeles,90016,4400 Coliseum Street,Los Angeles,90016,CA,9/8/2003,6/30/2013,Y,536,No Data,54,Unified School District,60,Elementary Schools (Public),TRAD,Traditional,ELEM,Elementary,K-8,K-8,No Data,No Data,N,No Data,34.018209,-118.34422
19647330101634.00,622710,11311,Los Angeles Unified,CHIME Charter Middle,19722 Collier Street,19722 Collier St.,Woodland Hills,91364-3618,19722 Collier Street,Woodland Hills,91364-3618,CA,9/2/2003,6/30/2013,Y,580,No Data,54,Unified School District,62,Intermediate/Middle Schools (Public),TRAD,Traditional,INTMIDJR,Intermediate/Middle/Junior High,8-Jul,8-Jul,No Data,No Data,N,No Data,34.165765,-118.56288
19647330108902.00,622710,10868,Los Angeles Unified,Alliance Richard Merkin Middle,2023 Union Avenue,2023 Union Ave.,Los Angeles,90007-1326,1940 South Figueroa Street,Los Angeles,90007,CA,8/29/2005,6/30/2013,Y,715,No Data,54,Unified School District,62,Intermediate/Middle Schools (Public),TRAD,Traditional,INTMIDJR,Intermediate/Middle/Junior High,8-Jun,8-Jun,No Data,No Data,N,No Data,34.036313,-118.28256
19647330111617.00,622710,11639,Los Angeles Unified,Animo Locke Technology High,810 East 111th Place,810 East 111th Pl.,Los Angeles,90059-1520,810 East 111th Place,Los Angeles,90059-1520,CA,9/4/2007,6/30/2013,Y,786,No Data,54,Unified School District,66,High Schools (Public),TRAD,Traditional,HS,High School,12-Sep,12-Sep,No Data,No Data,N,No Data,33.935281,-118.26026
19647330112540.00,622710,11666,Los Angeles Unified,Lou Dantzler Preparatory Charter High,"5120 West Goldleaf Circle, Suite 350","5120 West Goldleaf Circle, Ste. 350",Los Angeles,90056,"5120 West Goldleaf Circle, Suite 350",Los Angeles,90056,CA,9/5/2007,6/30/2013,Y,832,No Data,54,Unified School District,66,High Schools (Public),TRAD,Traditional,HS,High School,12-Sep,12-Sep,No Data,No Data,N,No Data,33.988543,-118.36856
19647330115261.00,622710,11870,Los Angeles Unified,Thurgood Marshall Charter Middle,3500 South Normandie Avenue,3500 South Normandie Ave.,Los Angeles,90007,"5150 West Goldleaf Circle, Suite 401",Los Angeles,90056,CA,9/10/2007,6/30/2013,Y,951,No Data,54,Unified School District,62,Intermediate/Middle Schools (Public),TRAD,Traditional,INTMIDJR,Intermediate/Middle/Junior High,8-Jun,8-Jun,No Data,No Data,N,No Data,34.024304,-118.30027
19647330116533.00,622710,12297,Los Angeles Unified,Alliance Christine O'Donovan Middle Academy,5355 South Fourth Avenue,5355 South Fourth Ave.,Los Angeles,90043,1940 South Figueroa Street,Los Angeles,90007,CA,9/2/2008,6/30/2013,Y,969,No Data,54,Unified School District,62,Intermediate/Middle Schools (Public),TRAD,Traditional,INTMIDJR,Intermediate/Middle/Junior High,8-Jun,8-Jun,No Data,No Data,N,No Data,33.993504,-118.32149
19647330117929.00,622710,12307,Los Angeles Unified,Larchmont Charter-West Hollywood,1265 North Fairfax Avenue,1265 North Fairfax Ave.,West Hollywood,90046-5205,1265 North Fairfax Avenue,West Hollywood,90046-5205,CA,9/3/2008,6/30/2013,Y,1040,No Data,54,Unified School District,60,Elementary Schools (Public),TRAD,Traditional,ELEM,Elementary,K-8,K-6,No Data,No Data,N,No Data,34.093555,-118.36154
19647330118158.00,622710,12271,Los Angeles Unified,Anahuacalmecac International Preparatory High School of North America,4736 Huntington Drive South,4736 Huntington Dr. South,Los Angeles,90032-1942,4736 Huntington Drive South,Los Angeles,90032-1942,CA,9/4/2008,6/30/2013,Y,1025,No Data,54,Unified School District,66,High Schools (Public),TRAD,Traditional,HS,High School,12-Sep,12-Sep,No Data,No Data,N,No Data,34.085252,-118.18123
19647330118596.00,622710,12306,Los Angeles Unified,Animo Locke II College Preparatory Academy,325 East 111th Street,325 East 111th St.,Los Angeles,90061-3003,325 East 111th Street,Los Angeles,90061-3003,CA,9/8/2008,6/30/2013,Y,1051,No Data,54,Unified School District,66,High Schools (Public),TRAD,Traditional,HS,High School,12-Sep,12-Sep,No Data,No Data,N,No Data,33.934867,-118.26893
19647330119719.00,622710,12441,Los Angeles Unified,School of Engineering and Technology,1200 Playa Del Sol,1200 Playa Del Sol,Los Angeles,90033,1200 Playa Del Sol,Los Angeles,90033,CA,9/9/2009,6/30/2013,N,No Data,No Data,54,Unified School District,66,High Schools (Public),TRAD,Traditional,HS,High School,12-Sep,12-Sep,No Data,No Data,N,No Data,34.0487,-118.2274
19647330120667.00,622710,12516,Los Angeles Unified,Futuro College Preparatory Elementary,1314 Dacatah Street,1314 Dacatah St.,Los Angeles,90023,1314 Dacatah Street,Los Angeles,90023,CA,9/1/2010,6/30/2013,Y,1100,No Data,54,Unified School District,60,Elementary Schools (Public),TRAD,Traditional,ELEM,Elementary,K-5,K-3,No Data,No Data,N,No Data,34.022041,-118.21146
19647330122283.00,622710,12814,Los Angeles Unified,School of Law & Government at Roosevelt High,456 South Mathews Street,456 South Mathews St.,Los Angeles,90033-4326,456 South Mathews Street,Los Angeles,90033-4326,CA,9/13/2010,6/30/2013,N,No Data,No Data,54,Unified School District,66,High Schools (Public),TRAD,Traditional,HS,High School,12-Sep,12-Sep,No Data,No Data,N,No Data,34.039171,-118.21119
19647330122291.00,622710,12828,Los Angeles Unified,Humanitas Art School at Roosevelt High,456 South Mathews Street,456 South Mathews St.,Los Angeles,90033-4326,456 South Mathews Street,Los Angeles,90033-4326,CA,9/13/2010,6/30/2013,N,No Data,No Data,54,Unified School District,66,High Schools (Public),TRAD,Traditional,HS,High School,12-Sep,12-Sep,No Data,No Data,N,No Data,34.039171,-118.21119
19647330122309.00,622710,12623,Los Angeles Unified,"School of Science, Technology, Engineering & Math (STEM) at Roosevelt High",456 South Mathews Street,456 South Mathews St.,Los Angeles,90033-4326,456 South Mathews Street,Los Angeles,90033-4326,CA,9/13/2010,6/30/2013,N,No Data,No Data,54,Unified School District,66,High Schools (Public),TRAD,Traditional,HS,High School,12-Sep,12-Sep,No Data,No Data,N,No Data,34.039171,-118.21119
19647330122325.00,622710,12783,Los Angeles Unified,Academy of Medical & Health Sciences at Roosevelt High,456 South Mathews Street,456 South Mathews St.,Los Angeles,90033-4326,456 South Mathews Street,Los Angeles,90033-4326,CA,9/13/2010,6/30/2013,N,No Data,No Data,54,Unified School District,66,High Schools (Public),TRAD,Traditional,HS,High School,12-Sep,12-Sep,No Data,No Data,N,No Data,34.039171,-118.21119
19647330126565.00,622710,13122,Los Angeles Unified,"South Region High #12A Technology, Arts and Design High",8800 South San Pedro Street,8800 South San Pedro St.,Los Angeles,90003,8800 South San Pedro Street,Los Angeles,90003,CA,8/14/2012,6/30/2013,N,No Data,No Data,54,Unified School District,66,High Schools (Public),TRAD,Traditional,HS,High School,12-Sep,11-Sep,No Data,No Data,N,No Data,33.95715,-118.26875
19647331931419.00,622710,3133,Los Angeles Unified,Miguel Leonis Continuation,5445 Manton Avenue,5445 Manton Ave.,Woodland Hills,91367-5930,5445 Manton Avenue,Woodland Hills,91367-5930,CA,7/1/1980,6/30/2013,N,No Data,No Data,54,Unified School District,68,Continuation High Schools,CON,Continuation School,HS,High School,12-Sep,12-Sep,No Data,No Data,N,No Data,34.16938,-118.64078
19647331935154.00,622710,3140,Los Angeles Unified,Alain Leroy Locke 3 College Preparatory Academy,325 East 111th Street,325 East 111th St.,Los Angeles,90061-3003,"1149 South Hill Street, Suite 600",Los Angeles,90015,CA,7/1/1980,6/30/2013,Y,965,No Data,54,Unified School District,66,High Schools (Public),TRAD,Traditional,HS,High School,12-Sep,12-Sep,No Data,No Data,N,No Data,33.934867,-118.26893
19648400124974.00,627690,13011,Norwalk-La Mirada Unified,Performance Learning Center - CDS,15920 Barbala Road,15920 Barbala Rd.,La Mirada,90638,15920 Barbala Road,La Mirada,90638,CA,9/8/2011,6/30/2013,N,No Data,No Data,54,Unified School District,69,District Community Day Schools,COMMDAY,Community Day School,HS,High School,12-Sep,12-Oct,No Data,No Data,N,No Data,33.88776,-118.0049
19765210117390.00,601333,12363,SBE - Doris Topsy-Elvord Academy,Doris Topsy-Elvord Academy,5951 Downey Avenue,5951 Downey Ave.,Long Beach,90805-4518,5951 Downey Avenue,Long Beach,90805-4518,CA,9/29/2008,6/30/2013,Y,964,No Data,2,State Board of Education,62,Intermediate/Middle Schools (Public),TRAD,Traditional,INTMIDJR,Intermediate/Middle/Junior High,8-Jun,8-Jun,No Data,No Data,N,No Data,33.863666,-118.15129
19645270118547.00,612180,12230,El Rancho Unified,Eugene A. Obregon,3300 Sandoval Avenue,3300 Sandoval Ave.,Pico Rivera,90660,3300 Sandoval Avenue,Pico Rivera,90660,CA,8/27/2008,6/30/2012,N,No Data,No Data,54,Unified School District,9,Special Education Schools (Public),SPEC,Special Education School,ELEMHIGH,Elementary-High Combination,K-12,12-Jan,No Data,No Data,N,No Data,34.018341,-118.06178
19647256015390.00,622500,2729,Long Beach Unified,Keller Elementary,7020 East Brittain Street,7020 East Brittain St.,Long Beach,90808-2301,7020 East Brittain Street,Long Beach,90808-2301,CA,7/1/1980,6/30/2012,N,No Data,No Data,54,Unified School District,60,Elementary Schools (Public),TRAD,Traditional,ELEM,Elementary,K-5,K-5,No Data,No Data,N,No Data,33.825335,-118.09658
19647330114942.00,622710,11844,Los Angeles Unified,Alliance College-Ready Academy High No. 7,2941 West 70th Street,2941 West 70th St.,Los Angeles,90043,1940 South Figueroa Street,Los Angeles,90007,CA,9/4/2007,6/30/2012,Y,926,No Data,54,Unified School District,66,High Schools (Public),TRAD,Traditional,HS,High School,12-Sep,12-Sep,No Data,No Data,N,No Data,33.976373,-118.32583
19647331996636.00,622710,10518,Los Angeles Unified,Community Harvest Charter,5300 Sepulveda Boulevard,5300 Sepulveda Blvd.,Sherman Oaks,91411-3440,5300 Sepulveda Boulevard,Sherman Oaks,91411-3440,CA,9/9/2002,6/30/2012,Y,474,No Data,54,Unified School District,66,High Schools (Public),TRAD,Traditional,ELEMHIGH,Elementary-High Combination,12-Jun,12-Jun,No Data,No Data,N,No Data,34.166842,-118.46591
19647250118471.00,622500,12381,Long Beach Unified,Colegio New City,1637 Long Beach Boulevard,1637 Long Beach Blvd.,Long Beach,90813,1637 Long Beach Boulevard,Long Beach,90813,CA,8/26/2008,6/6/2012,Y,1045,No Data,54,Unified School District,66,High Schools (Public),TRAD,Traditional,HS,High School,12-Sep,12-Sep,No Data,No Data,N,No Data,33.788153,-118.18948
19647256113146.00,622500,4590,Long Beach Unified,Constellation Community Charter Middle,620 Olive Avenue,620 Olive Ave.,Long Beach,90802-1546,PO Box 2130,Long Beach,90801-2130,CA,8/11/1995,4/30/2012,Y,58,No Data,54,Unified School District,62,Intermediate/Middle Schools (Public),TRAD,Traditional,INTMIDJR,Intermediate/Middle/Junior High,8-Jun,8-Jun,No Data,No Data,N,No Data,33.774752,-118.18233
19649070100628.00,631320,12021,Pomona Unified,Educational Resource Center at Garey Village Community Day,"2350 South Garey Avenue, Building D","2350 South Garey Ave., Bldg. D",Pomona,91767-3622,"2350 South Garey Avenue, Building D",Pomona,91767-3622,CA,9/3/2003,3/14/2012,N,No Data,No Data,54,Unified School District,69,District Community Day Schools,COMMDAY,Community Day School,HS,High School,12-Jul,No Data,No Data,No Data,Y,No Data,34.090741,-117.74881
19101991996180.00,691078,8007,Los Angeles County Office of Education,Eastern Community Day,5777 South Lockheed Avenue,5777 South Lockheed Ave.,Whittier,90606,5777 South Lockheed Avenue,Whittier,90606,CA,7/1/1999,12/23/2011,N,No Data,No Data,0,County Office of Education (COE),69,District Community Day Schools,COMMDAY,Community Day School,HS,High School,12-Jun,12-Sep,No Data,No Data,N,No Data,33.995114,-118.0651
19642871995331.00,603690,7512,Baldwin Park Unified,Baldwin Park Alternative,4730 Baldwin Park Boulevard,4730 Baldwin Park Blvd.,Baldwin Park,91706,4640 Maine Avenue,Baldwin Park,91706,CA,1/30/1998,9/30/2011,N,No Data,No Data,54,Unified School District,63,Alternative Schools of Choice,ALTSOC,Alternative School of Choice,HS,High School,K-12,12-Oct,No Data,No Data,N,No Data,34.098336,-117.96483
19647330112243.00,622710,11661,Los Angeles Unified,Nuevo Sol Charter,1218 Fourth Street,1218 Fourth St.,San Fernando,91340,1218 Fourth Street,San Fernando,91340,CA,9/27/2011,9/27/2011,Y,828,No Data,54,Unified School District,60,Elementary Schools (Public),TRAD,Traditional,ELEM,Elementary,K-5,No Data,No Data,N,N,No Data,34.287789,-118.43827
19647740118562.00,623160,12320,Lynwood Unified,Kaplan Academy of Southern California,"840 Apollo Street, Suite 222","840 Apollo St., Ste. 222",El Segundo,90245,"840 Apollo Street, Suite 222",El Segundo,90245,CA,9/29/2008,8/6/2011,Y,1046,No Data,54,Unified School District,65,K-12 Schools (Public),TRAD,Traditional,ELEMHIGH,Elementary-High Combination,K-12,12-Jun,No Data,No Data,N,No Data,33.903324,-118.38646
19647330115295.00,622710,12037,Los Angeles Unified,Fernando Pullum Performing Arts High,5100 South Broadway,5100 South Broadway,Los Angeles,90037,5100 South Broadway,Los Angeles,90037,CA,9/8/2009,7/26/2011,Y,954,No Data,54,Unified School District,66,High Schools (Public),TRAD,Traditional,HS,High School,12-Sep,11-Sep,No Data,No Data,N,No Data,33.996075,-118.27831
19647330109959.00,622710,10898,Los Angeles Unified,Crescendo Charter,4900 South Western Avenue,4900 South Western Ave.,Los Angeles,90062-2326,2506 West Imperial Highway,Hawthorne,90250,CA,9/7/2005,7/19/2011,Y,742,No Data,54,Unified School District,60,Elementary Schools (Public),TRAD,Traditional,ELEM,Elementary,K-5,K-5,No Data,No Data,N,No Data,33.998734,-118.30892
19647330115758.00,622710,12141,Los Angeles Unified,Crescendo Charter Preparatory West,16110 South La Salle Avenue,16110 South La Salle Ave.,Gardena,90247,2506 West Imperial Highway,Hawthorne,90250,CA,9/4/2007,7/19/2011,Y,962,No Data,54,Unified School District,60,Elementary Schools (Public),TRAD,Traditional,ELEM,Elementary,K-5,K-5,No Data,No Data,N,No Data,33.88457,-118.30582
19647330115790.00,622710,12124,Los Angeles Unified,Crescendo Charter Preparatory South,8477 South Normandie Avenue,8477 South Normandie Ave.,Los Angeles,90044-2246,2506 West Imperial Highway,Hawthorne,90250,CA,9/5/2007,7/19/2011,Y,959,No Data,54,Unified School District,60,Elementary Schools (Public),TRAD,Traditional,ELEM,Elementary,K-4,K-4,No Data,No Data,N,No Data,33.961217,-118.30024
19647330112219.00,622710,11658,Los Angeles Unified,Crescendo Charter Academy,13000 South Van Ness Avenue,13000 South Van Ness Ave.,Gardena,90249-1726,2506 West Imperial Highway,Hawthorne,90250,CA,9/5/2006,7/12/2011,Y,808,No Data,54,Unified School District,60,Elementary Schools (Public),TRAD,Traditional,ELEM,Elementary,K-5,K-5,No Data,No Data,N,No Data,33.914375,-118.3178
19647330112342.00,622710,11663,Los Angeles Unified,Crescendo Charter Conservatory,2506 West Imperial Highway,2506 West Imperial Hwy.,Hawthorne,90250,2506 West Imperial Highway,Hawthorne,90250,CA,9/5/2006,7/12/2011,Y,821,No Data,54,Unified School District,60,Elementary Schools (Public),TRAD,Traditional,ELEM,Elementary,K-5,K-5,No Data,No Data,N,No Data,33.930785,-118.32087
19645506013569.00,614940,1897,Garvey Elementary,Marshall (John) Elementary,1817 South Jackson Avenue,1817 South Jackson Ave.,San Gabriel,91776-4007,1817 South Jackson Avenue,San Gabriel,91776-4007,CA,7/1/1980,6/30/2011,N,No Data,No Data,52,Elementary School District,60,Elementary Schools (Public),TRAD,Traditional,ELEM,Elementary,K-6,K-6,No Data,No Data,N,No Data,34.076269,-118.1039
19647330118570.00,622710,12285,Los Angeles Unified,Animo Locke Charter High School #3,325 East 111th Street,325 East 111th St.,Los Angeles,90015-1714,"1149 South Hill Street, Suite 600",Los Angeles,90015,CA,9/8/2008,6/30/2011,Y,1052,No Data,54,Unified School District,66,High Schools (Public),TRAD,Traditional,HS,High School,12-Sep,11-Aug,No Data,No Data,N,No Data,33.934867,-118.26893
19647330119909.00,622710,12436,Los Angeles Unified,Animo Locke ACE Academy,325 East 111th Street,325 East 111th St.,Los Angeles,90061,"1149 South Hill Street, Suite 600",Los Angeles,90015,CA,7/27/2009,6/30/2011,Y,1053,No Data,54,Unified School District,66,High Schools (Public),TRAD,Traditional,HS,High School,12-Sep,10-Aug,No Data,No Data,N,No Data,33.934867,-118.26893
19647336061428.00,622710,2922,Los Angeles Unified,Henry Clay Middle,12226 South Western Avenue,12226 South Western Ave.,Los Angeles,90047-5240,12226 South Western Avenue,Los Angeles,90047-5240,CA,7/1/1980,6/30/2011,N,No Data,No Data,54,Unified School District,62,Intermediate/Middle Schools (Public),TRAD,Traditional,INTMIDJR,Intermediate/Middle/Junior High,8-Jun,8-May,No Data,No Data,N,No Data,33.922681,-118.30893
19648576021174.00,629580,4575,Palmdale Elementary,Mesa Intermediate,3243 East Avenue R-8,3243 East Avenue R-8,Palmdale,93550,3243 East Avenue R-8,Palmdale,93550,CA,7/1/1980,6/30/2011,N,No Data,No Data,52,Elementary School District,62,Intermediate/Middle Schools (Public),TRAD,Traditional,HS,High School,8-Jul,12-Oct,No Data,No Data,N,No Data,34.565632,-118.07089
19648816021539.00,629940,4663,Pasadena Unified,Burbank Elementary,2046 North Allen Avenue,2046 North Allen Ave.,Altadena,91001-3424,2046 North Allen Avenue,Altadena,91001-3424,CA,7/1/1980,6/30/2011,N,No Data,No Data,54,Unified School District,60,Elementary Schools (Public),TRAD,Traditional,ELEM,Elementary,K-5,K-5,No Data,No Data,N,No Data,34.180967,-118.11169
19648816021661.00,629940,4676,Pasadena Unified,Loma Alta Elementary,3544 North Canon Boulevard,3544 North Canon Blvd.,Altadena,91001-4008,3544 North Canon Boulevard,Altadena,91001-4008,CA,7/1/1980,6/30/2011,N,No Data,No Data,54,Unified School District,60,Elementary Schools (Public),TRAD,Traditional,ELEM,Elementary,K-5,K-5,No Data,No Data,N,No Data,34.204886,-118.13565
19734376012249.00,609620,973,Compton Unified,Caldwell Street Elementary,2300 West Caldwell Street,2300 West Caldwell St.,Compton,90220-4116,2300 West Caldwell Street,Compton,90220-4116,CA,7/1/1980,6/30/2011,N,No Data,No Data,54,Unified School District,60,Elementary Schools (Public),TRAD,Traditional,ELEM,Elementary,K-5,K-6,No Data,No Data,N,No Data,33.883151,-118.2507
19734376012421.00,609620,7154,Compton Unified,Frances Willard Elementary,310 East El Segundo Boulevard,310 East El Segundo Blvd.,Compton,90222-2315,310 East El Segundo Boulevard,Compton,90222-2315,CA,8/1/1997,6/30/2011,N,No Data,No Data,54,Unified School District,60,Elementary Schools (Public),TRAD,Traditional,ELEM,Elementary,5-Mar,6-Mar,No Data,No Data,N,No Data,33.916191,-118.22288
19734526022339.00,633750,5209,Rowland Unified,Rincon Intermediate,2800 East Hollingworth Street,2800 East Hollingworth St.,West Covina,91792-3029,2800 East Hollingworth Street,West Covina,91792-3029,CA,7/1/1980,6/30/2011,N,No Data,No Data,54,Unified School District,62,Intermediate/Middle Schools (Public),TRAD,Traditional,INTMIDJR,Intermediate/Middle/Junior High,8-Jul,8-Jul,No Data,No Data,N,No Data,34.007381,-117.8849
19101990123877.00,691078,12822,Los Angeles County Office of Education,Via Nueva Academy,3633 Slauson Avenue,3633 Slauson Ave.,Maywood,90270-5655,1042 Van Ness Avenue,Los Angeles,90068,CA,6/28/2011,6/28/2011,Y,1272,Locally funded,0,County Office of Education (COE),65,K-12 Schools (Public),TRAD,Traditional,ELEMHIGH,Elementary-High Combination,12-Jun,No Data,No Data,N,N,No Data,33.988597,-118.19967
19649076021844.00,631320,4844,Pomona Unified,Mendoza Elementary,851 South Hamilton Boulevard,851 South Hamilton Blvd.,Pomona,91766-2826,851 South Hamilton Boulevard,Pomona,91766-2826,CA,7/1/1980,6/20/2011,N,No Data,No Data,54,Unified School District,60,Elementary Schools (Public),TRAD,Traditional,ELEM,Elementary,K-3,K-3,No Data,No Data,N,No Data,34.051607,-117.7631
19650940120907.00,642000,12468,West Covina Unified,Coronado Academy Community Day,1500 East Francisquito Avenue,1500 East Francisquito Ave.,West Covina,91791,1500 East Francisquito Avenue,West Covina,91791,CA,8/23/2010,8/25/2010,N,No Data,No Data,54,Unified School District,69,District Community Day Schools,COMMDAY,Community Day School,HS,High School,12-Jul,No Data,No Data,No Data,N,No Data,34.050204,-117.91274
19643036011662.00,604440,10234,Bellflower Unified,Las Flores Elementary,10039 East Palm Street,10039 East Palm St.,Bellflower,90706-6013,16703 South Clark Avenue,Bellflower,90706,CA,7/1/1991,7/1/2010,N,No Data,No Data,54,Unified School District,60,Elementary Schools (Public),TRAD,Traditional,ELEM,Elementary,K-6,K-6,No Data,No Data,N,No Data,33.876715,-118.12017
19644441930031.00,610260,9774,Culver City Unified,Culver City Independent Study,5303 Berryman Avenue,5303 Berryman Ave.,Culver City,90230,5303 Berryman Avenue,Culver City,90230,CA,7/1/1980,7/1/2010,N,No Data,No Data,54,Unified School District,63,Alternative Schools of Choice,ALTSOC,Alternative School of Choice,ELEMHIGH,Elementary-High Combination,K-12,12-Mar,No Data,No Data,N,No Data,33.992816,-118.40022
19648576021182.00,629580,4576,Palmdale Elementary,Tamarisk Elementary,1843 East Avenue Q-5,1843 East Avenue Q-5,Palmdale,93550,1843 East Avenue Q-5,Palmdale,93550,CA,7/1/1980,7/1/2010,N,No Data,No Data,52,Elementary School District,60,Elementary Schools (Public),TRAD,Traditional,ELEM,Elementary,K-6,K-7,No Data,No Data,N,No Data,34.582793,-118.09538
19648576108617.00,629580,9607,Palmdale Elementary,Wildflower Elementary,38136 35th Street East,38136 35th St. East,Palmdale,93550-5022,38136 35th Street East,Palmdale,93550-5022,CA,7/1/1980,7/1/2010,N,No Data,No Data,52,Elementary School District,60,Elementary Schools (Public),TRAD,Traditional,ELEM,Elementary,K-6,K-7,No Data,No Data,N,No Data,34.573703,-118.06725
19101991995240.00,691078,9267,Los Angeles County Office of Education,Los Angeles County Juvenile Hall/Community,9300 Imperial Highway,9300 Imperial Hwy.,Downey,90242-2813,9300 Imperial Highway,Downey,90242-2813,CA,7/1/1980,6/30/2010,N,No Data,No Data,0,County Office of Education (COE),14,Juvenile Court Schools,JUV,Juvenile Court School,HS,High School,K-12,12-Oct,No Data,No Data,Y,No Data,33.916978,-118.1286
19101991996222.00,691078,8011,Los Angeles County Office of Education,Tri Community PAU,12721 South Willowbrook Avenue,12721 South Willowbrook Ave.,Compton,90222-1529,12721 South Willowbrook Avenue,Compton,90222-1529,CA,7/1/1999,6/30/2010,N,No Data,No Data,0,County Office of Education (COE),69,District Community Day Schools,COMMDAY,Community Day School,HS,High School,12-Jul,12,No Data,No Data,N,No Data,33.916938,-118.23212
19642796011282.00,603600,8795,Azusa Unified,Longfellow,245 West 10th Street,245 West 10th St.,Azusa,91702-2310,PO Box 500,Azusa,91702-0500,CA,7/1/1980,6/30/2010,N,No Data,No Data,54,Unified School District,60,Elementary Schools (Public),TRAD,Traditional,ELEM,Elementary,K-1,K,No Data,No Data,N,No Data,34.139089,-117.9093
19645920118505.00,616680,12354,Hawthorne,Academy for Recording Arts,14115 Chadron Avenue,14115 Chadron Ave.,Hawthorne,90250-8208,14115 Chadron Avenue,Hawthorne,90250-8208,CA,9/15/2008,6/30/2010,Y,1056,No Data,52,Elementary School District,66,High Schools (Public),TRAD,Traditional,ELEMHIGH,Elementary-High Combination,12-Sep,12-Jun,No Data,No Data,N,No Data,33.902866,-118.32868
19646676014732.00,620880,2511,Lancaster Elementary,Park View Middle,808 West Avenue J,808 West Avenue J,Lancaster,93534-3427,808 West Avenue J,Lancaster,93534-3427,CA,7/1/1980,6/30/2010,N,No Data,No Data,52,Elementary School District,62,Intermediate/Middle Schools (Public),TRAD,Traditional,INTMIDJR,Intermediate/Middle/Junior High,8-Jun,8-Jun,No Data,No Data,N,No Data,34.689339,-118.14372
19647330101311.00,622710,11352,Los Angeles Unified,Jessie Owens Community Day,2400 West 54th Street,2400 West 54th St.,Los Angeles,90043,2400 West 54th Street,Los Angeles,90043,CA,1/1/2003,6/30/2010,N,No Data,No Data,54,Unified School District,69,District Community Day Schools,COMMDAY,Community Day School,HS,High School,9-Jul,9,No Data,No Data,N,No Data,33.993217,-118.31951
19647330111591.00,622710,11637,Los Angeles Unified,Animo Justice Charter High,"1655 East 27th Street, 1st Floor","1655 East 27th St., 1st Fl.",Los Angeles,90011-2202,"350 South Figueroa Street, Suite 213",Los Angeles,90071,CA,8/28/2006,6/30/2010,Y,794,No Data,54,Unified School District,66,High Schools (Public),TRAD,Traditional,HS,High School,12-Sep,12-Aug,No Data,No Data,N,No Data,34.012544,-118.24451
19647330111948.00,622710,11643,Los Angeles Unified,Fourth Street Primary Center,469 Amalia Avenue,469 Amalia Ave.,Los Angeles,90022,469 Amalia Avenue,Los Angeles,90022,CA,7/5/2006,6/30/2010,N,No Data,No Data,54,Unified School District,60,Elementary Schools (Public),TRAD,Traditional,ELEM,Elementary,K,K,No Data,No Data,N,No Data,34.027265,-118.15405
19647330112854.00,622710,12017,Los Angeles Unified,Jordan New Technology High,2265 East 103rd Street,2265 East 103rd St.,Los Angeles,90002,2265 East 103rd Street,Los Angeles,90002,CA,9/5/2006,6/30/2010,N,No Data,No Data,54,Unified School District,66,High Schools (Public),TRAD,Traditional,HS,High School,12-Sep,12-Oct,No Data,No Data,N,No Data,33.943161,-118.23129
19647336071468.00,622710,7767,Los Angeles Unified,West Valley Special Education Center,6649 Balboa Boulevard,6649 Balboa Blvd.,Van Nuys,91406-5529,6649 Balboa Boulevard,Van Nuys,91406-5529,CA,7/1/1980,6/30/2010,N,No Data,No Data,54,Unified School District,9,Special Education Schools (Public),SPEC,Special Education School,ELEM,Elementary,K-6,K-5,No Data,No Data,N,No Data,34.191504,-118.50118
19647336106637.00,622710,9392,Los Angeles Unified,Bellevue Primary,610 North Micheltorena Street,610 North Micheltorena St.,Los Angeles,90026-3623,610 North Micheltorena Street,Los Angeles,90026-3623,CA,7/1/1980,6/30/2010,N,No Data,No Data,54,Unified School District,60,Elementary Schools (Public),TRAD,Traditional,ELEM,Elementary,K-1,K-1,No Data,No Data,N,No Data,34.079383,-118.2809
19647336115802.00,622710,7524,Los Angeles Unified,Kindergarten Learning Academy,6555 Sylmar Avenue,6555 Sylmar Ave.,Van Nuys,91401,6555 Sylmar Avenue,Van Nuys,91401,CA,7/1/1998,6/30/2010,N,No Data,No Data,54,Unified School District,60,Elementary Schools (Public),TRAD,Traditional,ELEM,Elementary,K,K,No Data,No Data,Y,No Data,34.190002,-118.44659
19649986108310.00,635970,9638,Saugus Union,Bouquet Canyon Elementary,28110 North Wellston Drive,28110 North Wellston Dr.,Saugus,91350-1800,28110 North Wellston Drive,Saugus,91350-1800,CA,7/1/1980,6/30/2010,N,No Data,No Data,52,Elementary School District,60,Elementary Schools (Public),TRAD,Traditional,ELEM,Elementary,K-6,K-6,No Data,No Data,Y,No Data,34.45291,-118.50354
19650376022875.00,637560,6362,South Whittier Elementary,Telechron Elementary,11200 Telechron Avenue,11200 Telechron Ave.,Whittier,90605-3799,11200 Telechron Avenue,Whittier,90605-3799,CA,7/1/1980,6/30/2010,N,No Data,No Data,52,Elementary School District,60,Elementary Schools (Public),TRAD,Traditional,ELEM,Elementary,K-6,3,No Data,No Data,N,No Data,33.929882,-118.03937
19734456014146.00,616325,2039,Hacienda la Puente Unified,Cedarlane Middle,16333 Cedarlane Drive,16333 Cedarlane Dr.,Hacienda Heights,91745-2947,16333 Cedarlane Drive,Hacienda Heights,91745-2947,CA,7/1/1980,6/30/2010,N,No Data,No Data,54,Unified School District,62,Intermediate/Middle Schools (Public),TRAD,Traditional,INTMIDJR,Intermediate/Middle/Junior High,8-Jun,8-Jun,No Data,No Data,N,No Data,33.998767,-117.95093
19734456014195.00,616325,2043,Hacienda la Puente Unified,Glenelder Elementary,16234 Folger Street,16234 Folger St.,Hacienda Heights,91745-2329,16234 Folger Street,Hacienda Heights,91745-2329,CA,7/1/1980,6/30/2010,N,No Data,No Data,54,Unified School District,60,Elementary Schools (Public),TRAD,Traditional,ELEM,Elementary,K-5,K-5,No Data,No Data,N,No Data,34.007133,-117.95249
19734456022255.00,616325,2044,Hacienda la Puente Unified,Grandview Elementary,795 North Grandview Lane,795 North Grandview Ln.,Valinda,91744-4259,795 North Grandview Lane,Valinda,91744-4259,CA,7/1/1980,6/30/2010,N,No Data,No Data,54,Unified School District,60,Elementary Schools (Public),TRAD,Traditional,ELEM,Elementary,K-5,K-5,No Data,No Data,N,No Data,34.032272,-117.92173
19734526022230.00,633750,5199,Rowland Unified,Farjardo Elementary,18550 East Farjardo,18550 East Farjardo,Rowland Heights,91748-4633,18550 East Farjardo,Rowland Heights,91748-4633,CA,7/1/1980,6/30/2010,N,No Data,No Data,54,Unified School District,60,Elementary Schools (Public),TRAD,Traditional,ELEM,Elementary,K-6,K-6,No Data,No Data,N,No Data,33.98026,-117.90096
19734526022313.00,633750,5206,Rowland Unified,La Seda Elementary,341 South La Seda Road,341 South La Seda Rd.,La Puente,91744-5917,341 South La Seda Road,La Puente,91744-5917,CA,7/1/1980,6/30/2010,N,No Data,No Data,54,Unified School District,60,Elementary Schools (Public),TRAD,Traditional,ELEM,Elementary,K-6,K-6,No Data,No Data,N,No Data,34.012351,-117.89759
19646591995950.00,620130,7111,La Canada Unified,Foothills (Special Education),4490 Cornishon Avenue,4490 Cornishon Ave.,La Canada,91011,4490 Cornishon Avenue,La Canada,91011,CA,10/16/1996,6/18/2010,N,No Data,No Data,54,Unified School District,9,Special Education Schools (Public),SPEC,Special Education School,HS,High School,12-Jul,12-Sep,No Data,No Data,N,No Data,34.205641,-118.20363
19647256057772.00,622500,2710,Long Beach Unified,DeMille Middle,7025 East Parkcrest Street,7025 East Parkcrest St.,Long Beach,90808-2319,7025 East Parkcrest Street,Long Beach,90808-2319,CA,7/1/1980,6/17/2010,N,No Data,No Data,54,Unified School District,62,Intermediate/Middle Schools (Public),TRAD,Traditional,INTMIDJR,Intermediate/Middle/Junior High,8-Jun,8-Jun,No Data,No Data,N,No Data,33.829519,-118.0967
19647330115121.00,622710,11876,Los Angeles Unified,Design High,1501 Wilshire Boulevard,1501 Wilshire Blvd.,Los Angeles,90017-2205,1501 Wilshire Boulevard,Los Angeles,90017-2205,CA,9/17/2007,5/19/2010,Y,935,No Data,54,Unified School District,66,High Schools (Public),TRAD,Traditional,HS,High School,12-Sep,11-Aug,No Data,No Data,N,No Data,34.054692,-118.26862
19647331931849.00,622710,12158,Los Angeles Unified,ROP Center,"333 South Beaudry Avenue, 18th Floor","333 South Beaudry Ave., 18th Fl.",Los Angeles,90017-5108,"333 South Beaudry Avenue, 18th Floor",Los Angeles,90017-5108,CA,7/1/1980,6/30/2009,N,No Data,No Data,54,Unified School District,98,ROC/ROP,No Data,No Data,A,Adult,Adult,No Data,N,No Data,N,No Data,34.056109,-118.25698
19647256058853.00,622500,4805,Long Beach Unified,Oak Academy,10821 Oak Street,10821 Oak St.,Los Alamitos,90720,10821 Oak Street,Los Alamitos,90720,CA,8/29/1995,6/30/1999,N,No Data,No Data,54,Unified School District,62,Intermediate/Middle Schools (Public),TRAD,Traditional,ELEM,Elementary,6-Mar,No Data,No Data,N,N,No Data,33.805663,-118.07579
19647826020408.00,No Data,5922,Manhattan Beach City Elementar,Opal Robinson Elementary,80 Morningside Drive,80 Morningside Dr.,Manhattan Beach,90266,80 Morningside Drive,Manhattan Beach,90266,CA,7/1/1980,7/24/1996,N,No Data,No Data,52,Elementary School District,60,Elementary Schools (Public),TRAD,Traditional,ELEM,Elementary,K-5,No Data,No Data,N,N,No Data,33.878219,-118.40497
19647336071468.00,622710,7767,Los Angeles Unified,West Valley Special Education Center,6649 Balboa Boulevard,6649 Balboa Blvd.,Van Nuys,91406-5529,6649 Balboa Boulevard,Van Nuys,91406-5529,CA,7/1/1980,6/30/2010,N,No Data,No Data,54,Unified School District,9,Special Education Schools (Public),SPEC,Special Education School,ELEM,Elementary,K-6,K-5,No Data,No Data,N,No Data,34.191504,-118.50118
19647336106637.00,622710,9392,Los Angeles Unified,Bellevue Primary,610 North Micheltorena Street,610 North Micheltorena St.,Los Angeles,90026-3623,610 North Micheltorena Street,Los Angeles,90026-3623,CA,7/1/1980,6/30/2010,N,No Data,No Data,54,Unified School District,60,Elementary Schools (Public),TRAD,Traditional,ELEM,Elementary,K-1,K-1,No Data,No Data,N,No Data,34.079383,-118.2809
19647336115802.00,622710,7524,Los Angeles Unified,Kindergarten Learning Academy,6555 Sylmar Avenue,6555 Sylmar Ave.,Van Nuys,91401,6555 Sylmar Avenue,Van Nuys,91401,CA,7/1/1998,6/30/2010,N,No Data,No Data,54,Unified School District,60,Elementary Schools (Public),TRAD,Traditional,ELEM,Elementary,K,K,No Data,No Data,Y,No Data,34.190002,-118.44659
19649986108310.00,635970,9638,Saugus Union,Bouquet Canyon Elementary,28110 North Wellston Drive,28110 North Wellston Dr.,Saugus,91350-1800,28110 North Wellston Drive,Saugus,91350-1800,CA,7/1/1980,6/30/2010,N,No Data,No Data,52,Elementary School District,60,Elementary Schools (Public),TRAD,Traditional,ELEM,Elementary,K-6,K-6,No Data,No Data,Y,No Data,34.45291,-118.50354
19650376022875.00,637560,6362,South Whittier Elementary,Telechron Elementary,11200 Telechron Avenue,11200 Telechron Ave.,Whittier,90605-3799,11200 Telechron Avenue,Whittier,90605-3799,CA,7/1/1980,6/30/2010,N,No Data,No Data,52,Elementary School District,60,Elementary Schools (Public),TRAD,Traditional,ELEM,Elementary,K-6,3,No Data,No Data,N,No Data,33.929882,-118.03937
19734456014146.00,616325,2039,Hacienda la Puente Unified,Cedarlane Middle,16333 Cedarlane Drive,16333 Cedarlane Dr.,Hacienda Heights,91745-2947,16333 Cedarlane Drive,Hacienda Heights,91745-2947,CA,7/1/1980,6/30/2010,N,No Data,No Data,54,Unified School District,62,Intermediate/Middle Schools (Public),TRAD,Traditional,INTMIDJR,Intermediate/Middle/Junior High,8-Jun,8-Jun,No Data,No Data,N,No Data,33.998767,-117.95093
19734456014195.00,616325,2043,Hacienda la Puente Unified,Glenelder Elementary,16234 Folger Street,16234 Folger St.,Hacienda Heights,91745-2329,16234 Folger Street,Hacienda Heights,91745-2329,CA,7/1/1980,6/30/2010,N,No Data,No Data,54,Unified School District,60,Elementary Schools (Public),TRAD,Traditional,ELEM,Elementary,K-5,K-5,No Data,No Data,N,No Data,34.007133,-117.95249
19734456022255.00,616325,2044,Hacienda la Puente Unified,Grandview Elementary,795 North Grandview Lane,795 North Grandview Ln.,Valinda,91744-4259,795 North Grandview Lane,Valinda,91744-4259,CA,7/1/1980,6/30/2010,N,No Data,No Data,54,Unified School District,60,Elementary Schools (Public),TRAD,Traditional,ELEM,Elementary,K-5,K-5,No Data,No Data,N,No Data,34.032272,-117.92173
19734526022230.00,633750,5199,Rowland Unified,Farjardo Elementary,18550 East Farjardo,18550 East Farjardo,Rowland Heights,91748-4633,18550 East Farjardo,Rowland Heights,91748-4633,CA,7/1/1980,6/30/2010,N,No Data,No Data,54,Unified School District,60,Elementary Schools (Public),TRAD,Traditional,ELEM,Elementary,K-6,K-6,No Data,No Data,N,No Data,33.98026,-117.90096
19734526022313.00,633750,5206,Rowland Unified,La Seda Elementary,341 South La Seda Road,341 South La Seda Rd.,La Puente,91744-5917,341 South La Seda Road,La Puente,91744-5917,CA,7/1/1980,6/30/2010,N,No Data,No Data,54,Unified School District,60,Elementary Schools (Public),TRAD,Traditional,ELEM,Elementary,K-6,K-6,No Data,No Data,N,No Data,34.012351,-117.89759
19646591995950.00,620130,7111,La Canada Unified,Foothills (Special Education),4490 Cornishon Avenue,4490 Cornishon Ave.,La Canada,91011,4490 Cornishon Avenue,La Canada,91011,CA,10/16/1996,6/18/2010,N,No Data,No Data,54,Unified School District,9,Special Education Schools (Public),SPEC,Special Education School,HS,High School,12-Jul,12-Sep,No Data,No Data,N,No Data,34.205641,-118.20363
19647256057772.00,622500,2710,Long Beach Unified,DeMille Middle,7025 East Parkcrest Street,7025 East Parkcrest St.,Long Beach,90808-2319,7025 East Parkcrest Street,Long Beach,90808-2319,CA,7/1/1980,6/17/2010,N,No Data,No Data,54,Unified School District,62,Intermediate/Middle Schools (Public),TRAD,Traditional,INTMIDJR,Intermediate/Middle/Junior High,8-Jun,8-Jun,No Data,No Data,N,No Data,33.829519,-118.0967
19647330115121.00,622710,11876,Los Angeles Unified,Design High,1501 Wilshire Boulevard,1501 Wilshire Blvd.,Los Angeles,90017-2205,1501 Wilshire Boulevard,Los Angeles,90017-2205,CA,9/17/2007,5/19/2010,Y,935,No Data,54,Unified School District,66,High Schools (Public),TRAD,Traditional,HS,High School,12-Sep,11-Aug,No Data,No Data,N,No Data,34.054692,-118.26862
19647331931849.00,622710,12158,Los Angeles Unified,ROP Center,"333 South Beaudry Avenue, 18th Floor","333 South Beaudry Ave., 18th Fl.",Los Angeles,90017-5108,"333 South Beaudry Avenue, 18th Floor",Los Angeles,90017-5108,CA,7/1/1980,6/30/2009,N,No Data,No Data,54,Unified School District,98,ROC/ROP,No Data,No Data,A,Adult,Adult,No Data,N,No Data,N,No Data,34.056109,-118.25698
19647256058853.00,622500,4805,Long Beach Unified,Oak Academy,10821 Oak Street,10821 Oak St.,Los Alamitos,90720,10821 Oak Street,Los Alamitos,90720,CA,8/29/1995,6/30/1999,N,No Data,No Data,54,Unified School District,62,Intermediate/Middle Schools (Public),TRAD,Traditional,ELEM,Elementary,6-Mar,No Data,No Data,N,N,No Data,33.805663,-118.07579
19647826020408.00,No Data,5922,Manhattan Beach City Elementar,Opal Robinson Elementary,80 Morningside Drive,80 Morningside Dr.,Manhattan Beach,90266,80 Morningside Drive,Manhattan Beach,90266,CA,7/1/1980,7/24/1996,N,No Data,No Data,52,Elementary School District,60,Elementary Schools (Public),TRAD,Traditional,ELEM,Elementary,K-5,No Data,No Data,N,N,No Data,33.878219,-118.40497
